{"type":"FeatureCollection", "features": [
{"type":"Feature","geometry":{"type":"LineString","coordinates":[[-109.3375576,32.3456603],[-109.328895,32.386395]]},"properties":{"@id":"way/16793412","intermittent":"yes","waterway":"river"},"id":"way/16793412"},
{"type":"Feature","geometry":{"type":"LineString","coordinates":[[-113.0203351,33.4333707],[-113.017854,33.4322202]]},"properties":{"@id":"way/28686655","created_by":"Merkaartor 0.12","name":"Wash","waterway":"river"},"id":"way/28686655"},
{"type":"Feature","geometry":{"type":"LineString","coordinates":[[-112.3609273,33.3850845],[-112.3733889,33.3898548],[-112.4531431,33.3715289]]},"properties":{"@id":"way/30672954","intermittent":"yes","name":"Gila River","surface":"dirt","waterway":"river"},"id":"way/30672954"},
{"type":"Feature","geometry":{"type":"LineString","coordinates":[[-112.4531431,33.3715289],[-112.5284792,33.3523442],[-112.5311709,33.3504924]]},"properties":{"@id":"way/30730092","intermittent":"yes","name":"Gila River","surface":"dirt","waterway":"river"},"id":"way/30730092"},
{"type":"Feature","geometry":{"type":"LineString","coordinates":[[-112.7259895,33.3512933],[-112.7149698,33.3339678]]},"properties":{"@id":"way/30920878","gnis:feature_id":"29784","name":"Hassayampa River","source":"National Hydrography Dataset","waterway":"river","website":"https://geonames.usgs.gov/pls/gnispublic/f?p=gnispq:3:::NO::P3_FID:29784"},"id":"way/30920878"},
{"type":"Feature","geometry":{"type":"LineString","coordinates":[[-112.7538281,33.4342527],[-112.7286187,33.3557156]]},"properties":{"@id":"way/30984306","gnis:feature_id":"29784","intermittent":"yes","name":"Hassayampa River","source":"National Hydrography Dataset","surface":"dirt","waterway":"river","website":"https://geonames.usgs.gov/pls/gnispublic/f?p=gnispq:3:::NO::P3_FID:29784"},"id":"way/30984306"},
{"type":"Feature","geometry":{"type":"LineString","coordinates":[[-112.7604425,33.4524575],[-112.7581089,33.4399021]]},"properties":{"@id":"way/31004134","intermittent":"yes","waterway":"river"},"id":"way/31004134"},
{"type":"Feature","geometry":{"type":"LineString","coordinates":[[-112.561842,33.3408292],[-112.5862042,33.3393796],[-112.6077336,33.3356604],[-112.6185572,33.331972]]},"properties":{"@id":"way/31026381","intermittent":"yes","name":"Gila River","surface":"dirt","waterway":"river"},"id":"way/31026381"},
{"type":"Feature","geometry":{"type":"LineString","coordinates":[[-110.6685066,32.2503114],[-110.7378942,32.2419772]]},"properties":{"@id":"way/38084219","intermittent":"yes","name":"Tanque Verde Wash","waterway":"river"},"id":"way/38084219"},
{"type":"Feature","geometry":{"type":"LineString","coordinates":[[-110.8759715,32.2696458],[-110.877155,32.2691087],[-111.0536032,32.3130315]]},"properties":{"@id":"way/38084921","boat":"no","intermittent":"yes","name":"Rillito River","waterway":"river"},"id":"way/38084921"},
{"type":"Feature","geometry":{"type":"LineString","coordinates":[[-110.7488597,32.2689916],[-110.7777021,32.2440385]]},"properties":{"@id":"way/38133728","intermittent":"yes","name":"Agua Caliente Wash","waterway":"river"},"id":"way/38133728"},
{"type":"Feature","geometry":{"type":"LineString","coordinates":[[-110.8056732,32.2887107],[-110.8244187,32.2603519]]},"properties":{"@id":"way/38134776","boat":"no","intermittent":"yes","name":"Sabino Creek","waterway":"river"},"id":"way/38134776"},
{"type":"Feature","geometry":{"type":"LineString","coordinates":[[-110.8174077,32.5664113],[-110.9250356,32.4184145]]},"properties":{"@id":"way/51984461","boat":"no","intermittent":"yes","name":"Cañada del Oro","waterway":"river","wikidata":"Q5055567","wikipedia":"en:Cañada del Oro"},"id":"way/51984461"},
{"type":"Feature","geometry":{"type":"LineString","coordinates":[[-110.8944742,32.4429303],[-110.9250356,32.4184145]]},"properties":{"@id":"way/51984983","boat":"no","intermittent":"yes","name":"Sutherland Wash","waterway":"river"},"id":"way/51984983"},
{"type":"Feature","geometry":{"type":"LineString","coordinates":[[-110.7918294,32.3846184],[-110.7984129,32.3291096],[-110.7984622,32.3290884],[-110.8032026,32.3262002],[-110.8032255,32.3261671],[-110.8044953,32.3258405],[-110.8045271,32.3258586],[-110.8057204,32.3250173],[-110.8057076,32.3249859],[-110.8090551,32.3230246],[-110.809895,32.3212345],[-110.8115164,32.3133813],[-110.8114832,32.3133388],[-110.8105289,32.3114233],[-110.8105143,32.3113807],[-110.8104372,32.3082762],[-110.8099199,32.3063724],[-110.8076178,32.2955442],[-110.8056732,32.2887107]]},"properties":{"@id":"way/51986282","boat":"no","intermittent":"yes","name":"Sabino Creek","waterway":"river"},"id":"way/51986282"},
{"type":"Feature","geometry":{"type":"LineString","coordinates":[[-114.8493534,32.5033272],[-114.8489606,32.5030215]]},"properties":{"@id":"way/52196208","source":"Yahoo","waterway":"river"},"id":"way/52196208"},
{"type":"Feature","geometry":{"type":"LineString","coordinates":[[-114.8375469,32.4772149],[-114.872122,32.4878942]]},"properties":{"@id":"way/52199399","intermittent":"yes","name":"Colorado River","name:ar":"نهر كولورادو","name:arz":"نهر كولورادو","name:azb":"کولورادو چایی","name:be":"Каларада","name:de":"Colorado","name:el":"Κολωρᾶδος","name:es":"Río Colorado","name:gl":"Río Colorado","name:grc":"Κολωρᾶδος","name:hy":"Կոլորադո","name:kk":"Колорадо","name:ku":"Çemê Kolorado","name:lt":"Koloradas","name:pa":"ਕੋਲੋਰਾਡੋ ਦਰਿਆ","name:pt":"Rio Colorado","name:ru":"Колорадо","name:sr":"Колорадо","name:uk":"Колорадо","name:ur":"دریائے کولوراڈو","order:strahler":"9","source":"Yahoo","waterway":"river"},"id":"way/52199399"},
{"type":"Feature","geometry":{"type":"LineString","coordinates":[[-114.8206182,32.4811156],[-114.8375469,32.4772149]]},"properties":{"@id":"way/52199411","intermittent":"yes","name":"Colorado River","name:ar":"نهر كولورادو","name:arz":"نهر كولورادو","name:azb":"کولورادو چایی","name:be":"Каларада","name:de":"Colorado","name:el":"Κολωρᾶδος","name:es":"Río Colorado","name:gl":"Río Colorado","name:grc":"Κολωρᾶδος","name:hy":"Կոլորադո","name:kk":"Колорадо","name:ku":"Çemê Kolorado","name:lt":"Koloradas","name:pa":"ਕੋਲੋਰਾਡੋ ਦਰਿਆ","name:pt":"Rio Colorado","name:ru":"Колорадо","name:sr":"Колорадо","name:uk":"Колорадо","name:ur":"دریائے کولوراڈو","order:strahler":"9","source":"Yahoo","waterway":"river"},"id":"way/52199411"},
{"type":"Feature","geometry":{"type":"LineString","coordinates":[[-114.8135922,32.4940383],[-114.8206182,32.4811156]]},"properties":{"@id":"way/52246272","intermittent":"yes","name":"Colorado River","name:ar":"نهر كولورادو","name:arz":"نهر كولورادو","name:azb":"کولورادو چایی","name:be":"Каларада","name:de":"Colorado","name:el":"Κολωρᾶδος","name:es":"Río Colorado","name:gl":"Río Colorado","name:grc":"Κολωρᾶδος","name:hy":"Կոլորադո","name:kk":"Колорадо","name:ku":"Çemê Kolorado","name:lt":"Koloradas","name:pa":"ਕੋਲੋਰਾਡੋ ਦਰਿਆ","name:pt":"Rio Colorado","name:ru":"Колорадо","name:sr":"Колорадо","name:uk":"Колорадо","name:ur":"دریائے کولوراڈو","order:strahler":"9","source":"Yahoo","waterway":"river"},"id":"way/52246272"},
{"type":"Feature","geometry":{"type":"LineString","coordinates":[[-114.9146364,32.1453675],[-114.9276485,32.1412031]]},"properties":{"@id":"way/52248207","source":"landsat","waterway":"river"},"id":"way/52248207"},
{"type":"Feature","geometry":{"type":"LineString","coordinates":[[-114.9497099,32.1635716],[-114.9545239,32.1646334]]},"properties":{"@id":"way/52248214","intermittent":"yes","source":"landsat","waterway":"river"},"id":"way/52248214"},
{"type":"Feature","geometry":{"type":"LineString","coordinates":[[-114.9467321,32.1089205],[-114.9480135,32.1040189]]},"properties":{"@id":"way/52248215","source":"landsat","waterway":"river"},"id":"way/52248215"},
{"type":"Feature","geometry":{"type":"LineString","coordinates":[[-114.4318503,32.7543136],[-114.4427496,32.7404717],[-114.4639772,32.7236867],[-114.558151,32.7206614]]},"properties":{"@id":"way/52249260","name":"Gila River","source":"Yahoo","waterway":"river"},"id":"way/52249260"},
{"type":"Feature","geometry":{"type":"LineString","coordinates":[[-114.4462087,32.7421965],[-114.4427496,32.7404717]]},"properties":{"@id":"way/52249327","source":"Yahoo","waterway":"river"},"id":"way/52249327"},
{"type":"Feature","geometry":{"type":"LineString","coordinates":[[-114.3580508,32.7627905],[-114.3594352,32.7629089],[-114.4318503,32.7543136]]},"properties":{"@id":"way/52249449","intermittent":"yes","name":"Gila River","source":"Yahoo","surface":"dirt","waterway":"river"},"id":"way/52249449"},
{"type":"Feature","geometry":{"type":"LineString","coordinates":[[-114.3514924,32.7598158],[-114.3594352,32.7629089]]},"properties":{"@id":"way/52249453","intermittent":"yes","source":"Yahoo","waterway":"river"},"id":"way/52249453"},
{"type":"Feature","geometry":{"type":"LineString","coordinates":[[-113.9253312,32.7427454],[-113.94635,32.7418595]]},"properties":{"@id":"way/52249465","intermittent":"yes","name":"Gila River","source":"Yahoo","surface":"dirt","waterway":"river"},"id":"way/52249465"},
{"type":"Feature","geometry":{"type":"LineString","coordinates":[[-114.465795,32.883505],[-114.4695494,32.8746751]]},"properties":{"@id":"way/52349102","source":"Yahoo","waterway":"river"},"id":"way/52349102"},
{"type":"Feature","geometry":{"type":"LineString","coordinates":[[-114.5681756,33.0344512],[-114.5653217,33.0341094]]},"properties":{"@id":"way/52474053","source":"Yahoo","waterway":"river"},"id":"way/52474053"},
{"type":"Feature","geometry":{"type":"LineString","coordinates":[[-113.8400795,32.7762295],[-113.9253312,32.7427454],[-113.94635,32.7418595]]},"properties":{"@id":"way/52508576","intermittent":"yes","name":"Gila River","source":"Yahoo","surface":"dirt","waterway":"river"},"id":"way/52508576"},
{"type":"Feature","geometry":{"type":"LineString","coordinates":[[-113.80049,32.7870537],[-113.8037967,32.7856284],[-113.817241,32.7840644],[-113.8210419,32.7836421]]},"properties":{"@id":"way/52508579","intermittent":"yes","name":"Gila River","source":"Yahoo","surface":"dirt","waterway":"river"},"id":"way/52508579"},
{"type":"Feature","geometry":{"type":"LineString","coordinates":[[-113.6605219,32.8279153],[-113.80049,32.7870537],[-113.8037967,32.7856284],[-113.817241,32.7840644],[-113.8210419,32.7836421]]},"properties":{"@id":"way/52508610","intermittent":"yes","name":"Gila River","source":"Yahoo","surface":"dirt","waterway":"river"},"id":"way/52508610"},
{"type":"Feature","geometry":{"type":"LineString","coordinates":[[-112.6185572,33.331972],[-112.640074,33.3331627],[-112.6451264,33.3295004],[-112.6760707,33.321569],[-112.6815668,33.3215883],[-112.73137,33.3089961],[-112.7330008,33.3091037],[-112.7398607,33.3100131],[-112.7459369,33.3082718],[-112.7470073,33.3082272],[-112.768527,33.2878084],[-112.7693662,33.2854922],[-112.7728397,33.2801444],[-112.767847,33.2293065],[-113.0102121,33.0750163]]},"properties":{"@id":"way/52508672","intermittent":"yes","name":"Gila River","surface":"dirt","waterway":"river"},"id":"way/52508672"},
{"type":"Feature","geometry":{"type":"LineString","coordinates":[[-114.9657494,32.3406307],[-115.1496287,32.1939758]]},"properties":{"@id":"way/54374529","intermittent":"yes","name":"Colorado River","name:ar":"نهر كولورادو","name:arz":"نهر كولورادو","name:azb":"کولورادو چایی","name:be":"Каларада","name:de":"Colorado","name:el":"Κολωρᾶδος","name:es":"Río Colorado","name:gl":"Río Colorado","name:grc":"Κολωρᾶδος","name:hy":"Կոլորադո","name:kk":"Колорадо","name:ku":"Çemê Kolorado","name:lt":"Koloradas","name:pa":"ਕੋਲੋਰਾਡੋ ਦਰਿਆ","name:pt":"Rio Colorado","name:ru":"Колорадо","name:sr":"Колорадо","name:uk":"Колорадо","name:ur":"دریائے کولوراڈو","order:strahler":"9","source":"yahoo_imagery","waterway":"river"},"id":"way/54374529"},
{"type":"Feature","geometry":{"type":"LineString","coordinates":[[-114.872122,32.4878942],[-114.9598813,32.3921134]]},"properties":{"@id":"way/54374533","intermittent":"yes","name":"Colorado River","name:ar":"نهر كولورادو","name:arz":"نهر كولورادو","name:azb":"کولورادو چایی","name:be":"Каларада","name:de":"Colorado","name:el":"Κολωρᾶδος","name:es":"Río Colorado","name:gl":"Río Colorado","name:grc":"Κολωρᾶδος","name:hy":"Կոլորադո","name:kk":"Колорадо","name:ku":"Çemê Kolorado","name:lt":"Koloradas","name:pa":"ਕੋਲੋਰਾਡੋ ਦਰਿਆ","name:pt":"Rio Colorado","name:ru":"Колорадо","name:sr":"Колорадо","name:uk":"Колорадо","name:ur":"دریائے کولوراڈو","order:strahler":"9","source":"Yahoo","waterway":"river"},"id":"way/54374533"},
{"type":"Feature","geometry":{"type":"LineString","coordinates":[[-112.6632451,31.7703957],[-113.1463157,31.9145849]]},"properties":{"@id":"way/55702464","intermittent":"yes","name":"Río Sonoyta","waterway":"river"},"id":"way/55702464"},
{"type":"Feature","geometry":{"type":"LineString","coordinates":[[-111.9187814,33.4332282],[-111.9492877,33.4337416]]},"properties":{"@id":"way/72764801","boat":"yes","name":"Salt River","waterway":"river"},"id":"way/72764801"},
{"type":"Feature","geometry":{"type":"LineString","coordinates":[[-111.7866535,33.4853526],[-111.9103432,33.4343665]]},"properties":{"@id":"way/72826916","boat":"no","gnis:feature_id":"33995","intermittent":"yes","name":"Salt River","source":"Yahoo,local_knowledge","waterway":"river","website":"https://geonames.usgs.gov/pls/gnispublic/f?p=gnispq:3:::NO::P3_FID:33995"},"id":"way/72826916"},
{"type":"Feature","geometry":{"type":"LineString","coordinates":[[-108.2061727,33.1802819],[-108.2077378,33.1795104]]},"properties":{"@id":"way/72927068","boat":"no","name":"Gila River","waterway":"river"},"id":"way/72927068"},
{"type":"Feature","geometry":{"type":"LineString","coordinates":[[-109.1718917,32.7772169],[-109.3735211,32.9746683],[-109.5367155,32.8604576],[-109.5400459,32.8608607],[-109.554959,32.8597473],[-109.5720342,32.8515984],[-109.6476751,32.8283773],[-109.7156819,32.8470317],[-109.7171643,32.8480479],[-109.7398775,32.8586032],[-109.7473124,32.866249],[-109.8203863,32.9110855],[-109.8277923,32.914891],[-109.8329208,32.9176272],[-109.8337932,32.9182575]]},"properties":{"@id":"way/73060716","boat":"no","name":"Gila River","waterway":"river"},"id":"way/73060716"},
{"type":"Feature","geometry":{"type":"LineString","coordinates":[[-110.5277907,33.174841],[-110.7642326,32.9882648],[-110.7647055,32.9873409],[-110.7663381,32.985214],[-110.7664449,32.9850939],[-110.7694305,32.9846559],[-110.7895996,32.9850485],[-111.0265046,33.1130978]]},"properties":{"@id":"way/73104294","boat":"no","name":"Gila River","waterway":"river"},"id":"way/73104294"},
{"type":"Feature","geometry":{"type":"LineString","coordinates":[[-111.8325376,33.1376414],[-111.8500172,33.148282],[-111.8638563,33.1488942],[-112.1579777,33.2538562],[-112.1924799,33.2652938],[-112.303634,33.3819049]]},"properties":{"@id":"way/73106700","boat":"no","intermittent":"yes","name":"Gila River","surface":"dirt","waterway":"river"},"id":"way/73106700"},
{"type":"Feature","geometry":{"type":"LineString","coordinates":[[-112.303634,33.3819049],[-112.3041474,33.3819537],[-112.3361853,33.3812519],[-112.3406823,33.380613],[-112.3439039,33.3810595]]},"properties":{"@id":"way/73107233","name":"Gila River","waterway":"river"},"id":"way/73107233"},
{"type":"Feature","geometry":{"type":"LineString","coordinates":[[-108.3996132,33.2763638],[-108.2435717,33.2221724],[-108.2061727,33.1802819]]},"properties":{"@id":"way/73121620","boat":"no","name":"West Fork Gila River","waterway":"river"},"id":"way/73121620"},
{"type":"Feature","geometry":{"type":"LineString","coordinates":[[-108.4956459,33.4169313],[-108.3194554,33.3043088]]},"properties":{"@id":"way/73128982","boat":"no","name":"Middle Fork Gila River","waterway":"river"},"id":"way/73128982"},
{"type":"Feature","geometry":{"type":"LineString","coordinates":[[-111.011214,32.1340838],[-110.9907532,32.1674618]]},"properties":{"@id":"way/86354365","boat":"no","intermittent":"yes","name":"West Branch Santa Cruz River","waterway":"river"},"id":"way/86354365"},
{"type":"Feature","geometry":{"type":"LineString","coordinates":[[-112.2793668,33.7824857],[-112.3733889,33.3898548]]},"properties":{"@id":"way/102864452","boat":"no","gnis:feature_id":"25542","intermittent":"yes","name":"Agua Fria River","waterway":"river","website":"https://geonames.usgs.gov/pls/gnispublic/f?p=gnispq:3:::NO::P3_FID:25542","wikidata":"Q397736","wikimedia_commons":"File:Agfr agua fria river.jpg","wikipedia":"en:Agua Fria River"},"id":"way/102864452"},
{"type":"Feature","geometry":{"type":"LineString","coordinates":[[-109.6310285,33.585921],[-109.8916207,33.5678099]]},"properties":{"@id":"way/136036280","admin_level":"6","border_type":"county","boundary":"administrative","name":"Black River","seasonal":"no","waterway":"river"},"id":"way/136036280"},
{"type":"Feature","geometry":{"type":"LineString","coordinates":[[-112.767847,33.2293065],[-112.7663038,33.2281939]]},"properties":{"@id":"way/161196315","boat":"no","gnis:feature_id":"4462","name":"Enterprise Canal","oneway":"yes","source":"Bing","surface":"ground","waterway":"river","website":"https://geonames.usgs.gov/pls/gnispublic/f?p=gnispq:3:::NO::P3_FID:4462"},"id":"way/161196315"},
{"type":"Feature","geometry":{"type":"LineString","coordinates":[[-110.3733274,32.8714483],[-110.586737,32.876223]]},"properties":{"@id":"way/164735862","name":"Aravaipa Creek","seasonal":"no","waterway":"river"},"id":"way/164735862"},
{"type":"Feature","geometry":{"type":"LineString","coordinates":[[-110.2092165,31.2011887],[-110.1477991,31.3339444]]},"properties":{"@id":"way/167283557","intermittent":"yes","name":"Rio San Pedro","waterway":"river"},"id":"way/167283557"},
{"type":"Feature","geometry":{"type":"LineString","coordinates":[[-110.2171719,31.7815766],[-110.2947678,32.1221342]]},"properties":{"@id":"way/173195810","intermittent":"yes","name":"San Pedro River","waterway":"river"},"id":"way/173195810"},
{"type":"Feature","geometry":{"type":"LineString","coordinates":[[-110.3791498,32.2846789],[-110.4179248,32.3386362]]},"properties":{"@id":"way/173195846","intermittent":"yes","name":"San Pedro River","waterway":"river"},"id":"way/173195846"},
{"type":"Feature","geometry":{"type":"LineString","coordinates":[[-110.5776188,32.6379759],[-110.65791,32.7551628]]},"properties":{"@id":"way/174932837","intermittent":"yes","name":"San Pedro River","waterway":"river"},"id":"way/174932837"},
{"type":"Feature","geometry":{"type":"LineString","coordinates":[[-110.4981668,32.5233371],[-110.5009303,32.5473272],[-110.5430281,32.6078093]]},"properties":{"@id":"way/174932838","intermittent":"yes","name":"San Pedro River","waterway":"river"},"id":"way/174932838"},
{"type":"Feature","geometry":{"type":"LineString","coordinates":[[-110.6976268,32.8126439],[-110.7156672,32.8382386],[-110.7172778,32.843344]]},"properties":{"@id":"way/174932844","intermittent":"no","name":"San Pedro River","waterway":"river"},"id":"way/174932844"},
{"type":"Feature","geometry":{"type":"LineString","coordinates":[[-110.4395454,32.3785425],[-110.4981668,32.5233371]]},"properties":{"@id":"way/174932848","intermittent":"yes","name":"San Pedro River","waterway":"river"},"id":"way/174932848"},
{"type":"Feature","geometry":{"type":"LineString","coordinates":[[-110.730429,32.903967],[-110.7538644,32.9486198]]},"properties":{"@id":"way/174932853","intermittent":"no","name":"San Pedro River","waterway":"river"},"id":"way/174932853"},
{"type":"Feature","geometry":{"type":"LineString","coordinates":[[-114.4720884,32.8665756],[-114.558151,32.7206614],[-114.6142688,32.7287893]]},"properties":{"@id":"way/180622010","name":"Colorado River","name:ar":"نهر كولورادو","name:arz":"نهر كولورادو","name:azb":"کولورادو چایی","name:be":"Каларада","name:de":"Colorado","name:el":"Κολωρᾶδος","name:es":"Río Colorado","name:gl":"Río Colorado","name:grc":"Κολωρᾶδος","name:hy":"Կոլորադո","name:kk":"Колорадо","name:ku":"Çemê Kolorado","name:lt":"Koloradas","name:pa":"ਕੋਲੋਰਾਡੋ ਦਰਿਆ","name:pt":"Rio Colorado","name:ru":"Колорадо","name:sr":"Колорадо","name:uk":"Колорадо","name:ur":"دریائے کولوراڈو","order:strahler":"9","waterway":"river"},"id":"way/180622010"},
{"type":"Feature","geometry":{"type":"LineString","coordinates":[[-110.7684678,32.9737696],[-110.7895996,32.9850485]]},"properties":{"@id":"way/185257914","intermittent":"yes","name":"San Pedro River","waterway":"river"},"id":"way/185257914"},
{"type":"Feature","geometry":{"type":"LineString","coordinates":[[-111.3946429,31.9606922],[-111.2836919,32.1480825]]},"properties":{"@id":"way/192028867","gnis:feature_id":"405","intermittent":"yes","name":"Brawley Wash","waterway":"river","website":"https://geonames.usgs.gov/pls/gnispublic/f?p=gnispq:3:::NO::P3_FID:405"},"id":"way/192028867"},
{"type":"Feature","geometry":{"type":"LineString","coordinates":[[-114.7199073,32.7187133],[-114.7289444,32.7054083]]},"properties":{"@id":"way/192103868","admin_level":"2","boundary":"administrative","name":"Colorado River","name:ar":"نهر كولورادو","name:arz":"نهر كولورادو","name:azb":"کولورادو چایی","name:be":"Каларада","name:ca":"riu Colorado","name:de":"Colorado","name:el":"Κολωρᾶδος","name:es":"Río Colorado","name:gl":"Río Colorado","name:grc":"Κολωρᾶδος","name:hy":"Կոլորադո","name:kk":"Колорадо","name:ku":"Çemê Kolorado","name:lt":"Koloradas","name:pa":"ਕੋਲੋਰਾਡੋ ਦਰਿਆ","name:pt":"Rio Colorado","name:ru":"Колорадо","name:sr":"Колорадо","name:uk":"Колорадо","name:ur":"دریائے کولوراڈو","order:strahler":"9","waterway":"river","wikidata":"Q1265","wikipedia":"es:Río Colorado"},"id":"way/192103868"},
{"type":"Feature","geometry":{"type":"LineString","coordinates":[[-114.7630243,32.649749],[-114.8129517,32.557377]]},"properties":{"@id":"way/192103869","admin_level":"2","boundary":"administrative","intermittent":"yes","name":"Colorado River","name:ar":"نهر كولورادو","name:arz":"نهر كولورادو","name:azb":"کولورادو چایی","name:be":"Каларада","name:de":"Colorado","name:el":"Κολωρᾶδος","name:es":"Río Colorado","name:gl":"Río Colorado","name:grc":"Κολωρᾶδος","name:hy":"Կոլորադո","name:kk":"Колорадо","name:ku":"Çemê Kolorado","name:lt":"Koloradas","name:pa":"ਕੋਲੋਰਾਡੋ ਦਰਿਆ","name:pt":"Rio Colorado","name:ru":"Колорадо","name:sr":"Колорадо","name:uk":"Колорадо","name:ur":"دریائے کولوراڈو","order:strahler":"9","source":"Yahoo;bing","waterway":"river"},"id":"way/192103869"},
{"type":"Feature","geometry":{"type":"LineString","coordinates":[[-112.742599,33.5039424],[-112.7497694,33.4854504]]},"properties":{"@id":"way/194580828","gnis:feature_id":"29784","intermittent":"yes","name":"Hassayampa River","source":"National Hydrography Dataset","waterway":"river","website":"https://geonames.usgs.gov/pls/gnispublic/f?p=gnispq:3:::NO::P3_FID:29784"},"id":"way/194580828"},
{"type":"Feature","geometry":{"type":"LineString","coordinates":[[-112.7149265,33.3338455],[-112.7398607,33.3100131]]},"properties":{"@id":"way/194580829","gnis:feature_id":"29784","name":"Hassayampa River","oneway":"yes","waterway":"river","website":"https://geonames.usgs.gov/pls/gnispublic/f?p=gnispq:3:::NO::P3_FID:29784"},"id":"way/194580829"},
{"type":"Feature","geometry":{"type":"LineString","coordinates":[[-112.7149698,33.3339678],[-112.7149265,33.3338455]]},"properties":{"@id":"way/194580838","gnis:feature_id":"29784","name":"Hassayampa River","oneway":"yes","tunnel":"yes","waterway":"river","website":"https://geonames.usgs.gov/pls/gnispublic/f?p=gnispq:3:::NO::P3_FID:29784"},"id":"way/194580838"},
{"type":"Feature","geometry":{"type":"LineString","coordinates":[[-112.7426736,33.5142508],[-112.742599,33.5039424],[-112.7497694,33.4854504],[-112.7600701,33.4586575],[-112.7604425,33.4524575],[-112.7581089,33.4399021],[-112.7538281,33.4342527]]},"properties":{"@id":"way/194580839","gnis:feature_id":"29784","intermittent":"yes","name":"Hassayampa River","source":"National Hydrography Dataset","tidal":"no","waterway":"river","website":"https://geonames.usgs.gov/pls/gnispublic/f?p=gnispq:3:::NO::P3_FID:29784"},"id":"way/194580839"},
{"type":"Feature","geometry":{"type":"LineString","coordinates":[[-111.8465055,33.1504454],[-111.8638563,33.1488942]]},"properties":{"@id":"way/195125068","intermittent":"yes","waterway":"river"},"id":"way/195125068"},
{"type":"Feature","geometry":{"type":"LineString","coordinates":[[-112.7540338,33.4583999],[-112.7600701,33.4586575]]},"properties":{"@id":"way/195433830","intermittent":"yes","name":"Buckeye Outlet Conduit","oneway":"yes","surface":"ground","tidal":"no","waterway":"river"},"id":"way/195433830"},
{"type":"Feature","geometry":{"type":"LineString","coordinates":[[-112.7244418,33.4518893],[-112.7496876,33.4577861]]},"properties":{"@id":"way/195433831","intermittent":"yes","name":"Buckeye Outlet Conduit","oneway":"yes","surface":"ground","waterway":"river"},"id":"way/195433831"},
{"type":"Feature","geometry":{"type":"LineString","coordinates":[[-112.7533033,33.4582505],[-112.7540338,33.4583999]]},"properties":{"@id":"way/195433832","intermittent":"yes","name":"Buckeye Outlet Conduit","oneway":"yes","surface":"concrete","tidal":"no","waterway":"river"},"id":"way/195433832"},
{"type":"Feature","geometry":{"type":"LineString","coordinates":[[-112.7496876,33.4577861],[-112.7533033,33.4582505]]},"properties":{"@id":"way/195433833","intermittent":"yes","layer":"-1","name":"Buckeye Outlet Conduit","oneway":"yes","surface":"concrete","tunnel":"culvert","waterway":"river"},"id":"way/195433833"},
{"type":"Feature","geometry":{"type":"LineString","coordinates":[[-112.3041474,33.3819537],[-112.3361853,33.3812519]]},"properties":{"@id":"way/196758925","intermittent":"yes","name":"Gila River","surface":"dirt","waterway":"river"},"id":"way/196758925"},
{"type":"Feature","geometry":{"type":"LineString","coordinates":[[-112.1579777,33.2538562],[-112.1924799,33.2652938]]},"properties":{"@id":"way/197682246","boat":"no","intermittent":"yes","name":"Gila River","surface":"dirt","waterway":"river"},"id":"way/197682246"},
{"type":"Feature","geometry":{"type":"LineString","coordinates":[[-114.5088153,33.7308096],[-114.4671172,32.8836144],[-114.4695494,32.8746751],[-114.4705065,32.8719294],[-114.4720884,32.8665756]]},"properties":{"@id":"way/202463451","name":"Colorado River","name:ar":"نهر كولورادو","name:arz":"نهر كولورادو","name:azb":"کولورادو چایی","name:be":"Каларада","name:de":"Colorado","name:el":"Κολωρᾶδος","name:es":"Río Colorado","name:gl":"Río Colorado","name:grc":"Κολωρᾶδος","name:hy":"Կոլորադո","name:kk":"Колорадо","name:ku":"Çemê Kolorado","name:lt":"Koloradas","name:pa":"ਕੋਲੋਰਾਡੋ ਦਰਿਆ","name:pt":"Rio Colorado","name:ru":"Колорадо","name:sr":"Колорадо","name:uk":"Колорадо","name:ur":"دریائے کولوراڈو","order:strahler":"9","waterway":"river","wikidata":"Q1265","wikipedia":"en:Colorado River"},"id":"way/202463451"},
{"type":"Feature","geometry":{"type":"LineString","coordinates":[[-113.4645725,33.2998235],[-113.4605514,33.2954916]]},"properties":{"@id":"way/206961770","gnis:feature_id":"3775","name":"Deadman Wash","waterway":"river","website":"https://geonames.usgs.gov/pls/gnispublic/f?p=gnispq:3:::NO::P3_FID:3775"},"id":"way/206961770"},
{"type":"Feature","geometry":{"type":"LineString","coordinates":[[-114.3181824,32.6114418],[-114.4639772,32.7236867]]},"properties":{"@id":"way/207086110","gnis:feature_id":"4762","intermittent":"yes","name":"Fortuna Wash","waterway":"river","website":"https://geonames.usgs.gov/pls/gnispublic/f?p=gnispq:3:::NO::P3_FID:4762"},"id":"way/207086110"},
{"type":"Feature","geometry":{"type":"LineString","coordinates":[[-113.0286898,33.0881484],[-113.0504108,33.0849392]]},"properties":{"@id":"way/207260730","intermittent":"yes","name":"Gila River","surface":"dirt","waterway":"river"},"id":"way/207260730"},
{"type":"Feature","geometry":{"type":"LineString","coordinates":[[-110.5276952,33.1751986],[-110.5277907,33.174841]]},"properties":{"@id":"way/211617360","name":"Gila River","tunnel":"yes","waterway":"river"},"id":"way/211617360"},
{"type":"Feature","geometry":{"type":"LineString","coordinates":[[-110.3436689,33.2181705],[-110.5276952,33.1751986]]},"properties":{"@id":"way/211617361","name":"Gila River","waterway":"river"},"id":"way/211617361"},
{"type":"Feature","geometry":{"type":"LineString","coordinates":[[-113.8210419,32.7836421],[-113.8400795,32.7762295]]},"properties":{"@id":"way/211617362","intermittent":"yes","name":"Gila River","source":"Yahoo","surface":"dirt","waterway":"river"},"id":"way/211617362"},
{"type":"Feature","geometry":{"type":"LineString","coordinates":[[-113.94635,32.7418595],[-114.3180667,32.7067604]]},"properties":{"@id":"way/211617363","intermittent":"yes","name":"Gila River","source":"Yahoo","surface":"dirt","waterway":"river"},"id":"way/211617363"},
{"type":"Feature","geometry":{"type":"LineString","coordinates":[[-109.3023536,33.1056548],[-109.3735211,32.9746683]]},"properties":{"@id":"way/215492580","name":"San Francisco River","waterway":"river"},"id":"way/215492580"},
{"type":"Feature","geometry":{"type":"LineString","coordinates":[[-111.7503847,32.7119973],[-111.946671,32.897858]]},"properties":{"@id":"way/230842813","boat":"no","fixme":"Bridge sign on I-8 says \"Greenes Wash\" rather than \"Greene Wash\"","gnis:feature_id":"5368","intermittent":"yes","name":"Greene Wash","waterway":"river","website":"https://geonames.usgs.gov/pls/gnispublic/f?p=gnispq:3:::NO::P3_FID:5368"},"id":"way/230842813"},
{"type":"Feature","geometry":{"type":"LineString","coordinates":[[-112.0567123,33.0001181],[-112.0571582,33.0161712]]},"properties":{"@id":"way/231662027","boat":"no","gnis:feature_id":"13205","name":"Smith Wash","waterway":"river","website":"https://geonames.usgs.gov/pls/gnispublic/f?p=gnispq:3:::NO::P3_FID:13205"},"id":"way/231662027"},
{"type":"Feature","geometry":{"type":"LineString","coordinates":[[-110.9174242,32.21474],[-110.9179446,32.2147989]]},"properties":{"@id":"way/232229716","boat":"no","intermittent":"yes","name":"Arroyo Chico Wash","waterway":"river"},"id":"way/232229716"},
{"type":"Feature","geometry":{"type":"LineString","coordinates":[[-112.2899103,33.3816992],[-112.2995015,33.3816535]]},"properties":{"@id":"way/232656557","boat":"no","gnis:feature_id":"33995","name":"Salt River","source":"Yahoo,local_knowledge","waterway":"river","website":"https://geonames.usgs.gov/pls/gnispublic/f?p=gnispq:3:::NO::P3_FID:33995"},"id":"way/232656557"},
{"type":"Feature","geometry":{"type":"LineString","coordinates":[[-110.6875057,32.3768175],[-110.6878073,32.3768536]]},"properties":{"@id":"way/234737640","intermittent":"yes","name":"Bear Creek","tunnel":"yes","waterway":"river"},"id":"way/234737640"},
{"type":"Feature","geometry":{"type":"LineString","coordinates":[[-110.6878073,32.3768536],[-110.7511551,32.3474595],[-110.751715,32.347559],[-110.7709419,32.3276437],[-110.7707594,32.3271339],[-110.8076178,32.2955442]]},"properties":{"@id":"way/234737641","intermittent":"yes","name":"Bear Creek","waterway":"river"},"id":"way/234737641"},
{"type":"Feature","geometry":{"type":"LineString","coordinates":[[-110.9179446,32.2147989],[-110.9181841,32.214826]]},"properties":{"@id":"way/236735782","boat":"no","intermittent":"yes","layer":"-1","name":"Arroyo Chico Wash","tunnel":"culvert","waterway":"river"},"id":"way/236735782"},
{"type":"Feature","geometry":{"type":"LineString","coordinates":[[-108.4602237,33.4874856],[-108.4956459,33.4169313]]},"properties":{"@id":"way/241138158","boat":"no","name":"Middle Fork Gila River","waterway":"river"},"id":"way/241138158"},
{"type":"Feature","geometry":{"type":"LineString","coordinates":[[-108.4081557,33.0719155],[-108.5994453,32.9069209]]},"properties":{"@id":"way/241138368","boat":"no","name":"Gila River","waterway":"river"},"id":"way/241138368"},
{"type":"Feature","geometry":{"type":"LineString","coordinates":[[-114.3180667,32.7067604],[-114.3514924,32.7598158],[-114.3580508,32.7627905]]},"properties":{"@id":"way/244209835","intermittent":"yes","name":"Gila River","source":"Yahoo","surface":"dirt","waterway":"river"},"id":"way/244209835"},
{"type":"Feature","geometry":{"type":"LineString","coordinates":[[-110.933185,31.3418309],[-110.9271281,31.3525465]]},"properties":{"@id":"way/253240377","intermittent":"no","name":"Nogales Wash","waterway":"river"},"id":"way/253240377"},
{"type":"Feature","geometry":{"type":"LineString","coordinates":[[-112.3406823,33.380613],[-112.3527033,33.3826389]]},"properties":{"@id":"way/257053261","intermittent":"yes","waterway":"river"},"id":"way/257053261"},
{"type":"Feature","geometry":{"type":"LineString","coordinates":[[-108.1030079,33.3360089],[-108.1020084,33.3338056]]},"properties":{"@id":"way/279668384","fixme":"stub","name":"Beaver Creek","source":"Bing","waterway":"river"},"id":"way/279668384"},
{"type":"Feature","geometry":{"type":"LineString","coordinates":[[-108.1767249,33.2407892],[-108.1619898,33.2181524]]},"properties":{"@id":"way/279668386","boat":"no","name":"East Fork Gila River","source":"Bing","waterway":"river"},"id":"way/279668386"},
{"type":"Feature","geometry":{"type":"LineString","coordinates":[[-108.1699834,33.2602881],[-108.1751799,33.244525],[-108.1764082,33.2425472],[-108.1767249,33.2407892]]},"properties":{"@id":"way/279668388","boat":"no","name":"East Fork Gila River","source":"Bing","waterway":"river"},"id":"way/279668388"},
{"type":"Feature","geometry":{"type":"LineString","coordinates":[[-108.1241533,33.3019935],[-108.1242443,33.302035]]},"properties":{"@id":"way/279668389","boat":"no","layer":"-1","name":"East Fork Gila River","source":"Bing","tunnel":"culvert","waterway":"river"},"id":"way/279668389"},
{"type":"Feature","geometry":{"type":"LineString","coordinates":[[-108.1020084,33.3338056],[-108.1241533,33.3019935]]},"properties":{"@id":"way/279668390","boat":"no","name":"East Fork Gila River","source":"Bing","waterway":"river"},"id":"way/279668390"},
{"type":"Feature","geometry":{"type":"LineString","coordinates":[[-108.0618156,33.3603927],[-108.0794825,33.3505677]]},"properties":{"@id":"way/279668391","name":"Taylor Creek","source":"Bing","waterway":"river"},"id":"way/279668391"},
{"type":"Feature","geometry":{"type":"LineString","coordinates":[[-108.0794825,33.3505677],[-108.1020084,33.3338056]]},"properties":{"@id":"way/279668392","name":"Taylor Creek","source":"Bing","waterway":"river"},"id":"way/279668392"},
{"type":"Feature","geometry":{"type":"LineString","coordinates":[[-108.1751799,33.244525],[-108.1764082,33.2425472]]},"properties":{"@id":"way/279668397","boat":"no","source":"Bing","waterway":"river"},"id":"way/279668397"},
{"type":"Feature","geometry":{"type":"LineString","coordinates":[[-109.1950307,33.2926571],[-109.1973789,33.2840315]]},"properties":{"@id":"way/282432432","fixme":"stub","name":"Blue River","source":"Bing","waterway":"river"},"id":"way/282432432"},
{"type":"Feature","geometry":{"type":"LineString","coordinates":[[-114.8853964,31.2086805],[-114.8950835,31.2085621],[-114.893899,31.2157808]]},"properties":{"@id":"way/282727017","waterway":"river"},"id":"way/282727017"},
{"type":"Feature","geometry":{"type":"LineString","coordinates":[[-114.8950835,31.2085621],[-114.8999544,31.2159579]]},"properties":{"@id":"way/282727021","waterway":"river"},"id":"way/282727021"},
{"type":"Feature","geometry":{"type":"LineString","coordinates":[[-114.9427239,31.3244607],[-114.9654819,31.3452353]]},"properties":{"@id":"way/283203855","waterway":"river"},"id":"way/283203855"},
{"type":"Feature","geometry":{"type":"LineString","coordinates":[[-114.8949345,31.2463602],[-114.8938859,31.2559918]]},"properties":{"@id":"way/283203861","waterway":"river"},"id":"way/283203861"},
{"type":"Feature","geometry":{"type":"LineString","coordinates":[[-114.934276,31.328275],[-114.9375912,31.3319005]]},"properties":{"@id":"way/283203863","waterway":"river"},"id":"way/283203863"},
{"type":"Feature","geometry":{"type":"LineString","coordinates":[[-114.883872,31.2878175],[-114.884844,31.2912685]]},"properties":{"@id":"way/283203871","waterway":"river"},"id":"way/283203871"},
{"type":"Feature","geometry":{"type":"LineString","coordinates":[[-112.0939906,33.4118449],[-112.1591966,33.4068768],[-112.1617414,33.4080276],[-112.2035141,33.397783]]},"properties":{"@id":"way/288087991","boat":"no","gnis:feature_id":"33995","intermittent":"yes","name":"Salt River","source":"Yahoo,local_knowledge","waterway":"river","website":"https://geonames.usgs.gov/pls/gnispublic/f?p=gnispq:3:::NO::P3_FID:33995"},"id":"way/288087991"},
{"type":"Feature","geometry":{"type":"LineString","coordinates":[[-111.9103432,33.4343665],[-111.9187814,33.4332282]]},"properties":{"@id":"way/288087994","access":"private","boat":"yes","gnis:feature_id":"33995","name":"Salt River","source":"Yahoo,local_knowledge","waterway":"river","website":"https://geonames.usgs.gov/pls/gnispublic/f?p=gnispq:3:::NO::P3_FID:33995"},"id":"way/288087994"},
{"type":"Feature","geometry":{"type":"LineString","coordinates":[[-111.3806737,31.0994508],[-111.4144853,30.9577174]]},"properties":{"@id":"way/297973938","intermittent":"yes","name":"Río Altar","waterway":"river"},"id":"way/297973938"},
{"type":"Feature","geometry":{"type":"LineString","coordinates":[[-110.3091671,31.0006503],[-110.2399439,31.0359998]]},"properties":{"@id":"way/298208829","intermittent":"yes","name":"Rio San Pedro","waterway":"river"},"id":"way/298208829"},
{"type":"Feature","geometry":{"type":"LineString","coordinates":[[-110.2399439,31.0359998],[-110.2267033,31.0433756]]},"properties":{"@id":"way/298208835","intermittent":"yes","name":"Rio San Pedro","waterway":"river"},"id":"way/298208835"},
{"type":"Feature","geometry":{"type":"LineString","coordinates":[[-110.2267033,31.0433756],[-110.1909171,31.148538]]},"properties":{"@id":"way/298208836","intermittent":"yes","name":"Rio San Pedro","waterway":"river"},"id":"way/298208836"},
{"type":"Feature","geometry":{"type":"LineString","coordinates":[[-110.1909171,31.148538],[-110.2131647,31.1860249]]},"properties":{"@id":"way/298209322","intermittent":"yes","name":"Rio San Pedro","waterway":"river"},"id":"way/298209322"},
{"type":"Feature","geometry":{"type":"LineString","coordinates":[[-110.2131647,31.1860249],[-110.2092165,31.2011887]]},"properties":{"@id":"way/298209323","intermittent":"yes","name":"Rio San Pedro","waterway":"river"},"id":"way/298209323"},
{"type":"Feature","geometry":{"type":"LineString","coordinates":[[-109.5677304,31.3172772],[-109.5548331,31.2255365]]},"properties":{"@id":"way/298233228","intermittent":"yes","name":"Rio Agua Prieta","tidal":"no","waterway":"river","width":"5"},"id":"way/298233228"},
{"type":"Feature","geometry":{"type":"LineString","coordinates":[[-109.5548331,31.2255365],[-109.5475641,31.2042941]]},"properties":{"@id":"way/298233346","intermittent":"yes","name":"Rio Agua Prieta","waterway":"river"},"id":"way/298233346"},
{"type":"Feature","geometry":{"type":"LineString","coordinates":[[-109.5475641,31.2042941],[-109.5227819,31.1563132],[-109.4297494,31.0904146],[-109.302792,31.0745314]]},"properties":{"@id":"way/298434811","intermittent":"yes","name":"Rio Agua Prieta","waterway":"river"},"id":"way/298434811"},
{"type":"Feature","geometry":{"type":"LineString","coordinates":[[-109.8565039,31.1362621],[-109.7964554,31.1341181]]},"properties":{"@id":"way/298644681","intermittent":"yes","waterway":"river"},"id":"way/298644681"},
{"type":"Feature","geometry":{"type":"LineString","coordinates":[[-109.7964554,31.1341181],[-109.763141,31.1316774]]},"properties":{"@id":"way/298672019","intermittent":"yes","waterway":"river"},"id":"way/298672019"},
{"type":"Feature","geometry":{"type":"LineString","coordinates":[[-109.8468542,31.1777833],[-109.763141,31.1316774]]},"properties":{"@id":"way/298672029","intermittent":"yes","waterway":"river"},"id":"way/298672029"},
{"type":"Feature","geometry":{"type":"LineString","coordinates":[[-109.763141,31.1316774],[-109.5227819,31.1563132]]},"properties":{"@id":"way/298686905","intermittent":"yes","name":"Río Cabullona","waterway":"river"},"id":"way/298686905"},
{"type":"Feature","geometry":{"type":"LineString","coordinates":[[-109.6466165,30.5403311],[-109.4297494,31.0904146]]},"properties":{"@id":"way/298693506","intermittent":"yes","name":"Río Fronteras","waterway":"river"},"id":"way/298693506"},
{"type":"Feature","geometry":{"type":"LineString","coordinates":[[-109.8405408,32.890735],[-109.8277923,32.914891]]},"properties":{"@id":"way/312318602","intermittent":"yes","surface":"dirt","waterway":"river"},"id":"way/312318602"},
{"type":"Feature","geometry":{"type":"LineString","coordinates":[[-112.961075,33.3929022],[-112.9569033,33.3906374]]},"properties":{"@id":"way/314198074","boat":"no","intermittent":"yes","oneway":"yes","surface":"dirt","waterway":"river"},"id":"way/314198074"},
{"type":"Feature","geometry":{"type":"LineString","coordinates":[[-107.9593821,33.4137963],[-108.0145927,33.3901774]]},"properties":{"@id":"way/314515942","intermittent":"yes","name":"Taylor Creek","source":"bing","waterway":"river"},"id":"way/314515942"},
{"type":"Feature","geometry":{"type":"LineString","coordinates":[[-107.9652187,33.3652684],[-108.0030728,33.3577682]]},"properties":{"@id":"way/314516276","intermittent":"yes","name":"Whitetail Canyon","source":"bing","waterway":"river"},"id":"way/314516276"},
{"type":"Feature","geometry":{"type":"LineString","coordinates":[[-113.053215,33.0816715],[-113.6605219,32.8279153]]},"properties":{"@id":"way/314787966","intermittent":"yes","name":"Gila River","source":"Yahoo","surface":"dirt","waterway":"river"},"id":"way/314787966"},
{"type":"Feature","geometry":{"type":"LineString","coordinates":[[-113.0102121,33.0750163],[-113.0129937,33.0768519]]},"properties":{"@id":"way/314787967","intermittent":"yes","layer":"-1","name":"Gila River","source":"Yahoo","surface":"dirt","tunnel":"yes","waterway":"river"},"id":"way/314787967"},
{"type":"Feature","geometry":{"type":"LineString","coordinates":[[-112.767847,33.2293065],[-112.7720311,33.2287854]]},"properties":{"@id":"way/314897886","boat":"no","gnis:feature_id":"4462","name":"Enterprise Canal","oneway":"yes","source":"Bing","surface":"ground","waterway":"river","website":"https://geonames.usgs.gov/pls/gnispublic/f?p=gnispq:3:::NO::P3_FID:4462"},"id":"way/314897886"},
{"type":"Feature","geometry":{"type":"LineString","coordinates":[[-112.7959756,32.9259681],[-112.7933591,32.9699631]]},"properties":{"@id":"way/314898193","intermittent":"yes","layer":"-2","oneway":"yes","surface":"dirt","waterway":"river"},"id":"way/314898193"},
{"type":"Feature","geometry":{"type":"LineString","coordinates":[[-114.4706588,32.8159765],[-114.4780585,32.8102275]]},"properties":{"@id":"way/320300682","waterway":"river"},"id":"way/320300682"},
{"type":"Feature","geometry":{"type":"LineString","coordinates":[[-114.4649426,32.8151031],[-114.4706588,32.8159765]]},"properties":{"@id":"way/320300683","layer":"-1","tunnel":"culvert","waterway":"river"},"id":"way/320300683"},
{"type":"Feature","geometry":{"type":"LineString","coordinates":[[-114.4780585,32.8102275],[-114.4886293,32.8030537]]},"properties":{"@id":"way/320300684","layer":"-1","tunnel":"culvert","waterway":"river"},"id":"way/320300684"},
{"type":"Feature","geometry":{"type":"LineString","coordinates":[[-114.4671172,32.8836144],[-114.465795,32.883505],[-114.4609446,32.8792481],[-114.4705065,32.8719294]]},"properties":{"@id":"way/320300685","waterway":"river"},"id":"way/320300685"},
{"type":"Feature","geometry":{"type":"LineString","coordinates":[[-114.4609446,32.8792481],[-114.4649426,32.8151031]]},"properties":{"@id":"way/320300686","waterway":"river"},"id":"way/320300686"},
{"type":"Feature","geometry":{"type":"LineString","coordinates":[[-114.7137924,32.7364886],[-114.71333,32.7349897],[-114.713821,32.7311181]]},"properties":{"@id":"way/320366535","waterway":"river"},"id":"way/320366535"},
{"type":"Feature","geometry":{"type":"LineString","coordinates":[[-114.7141611,32.7371822],[-114.7137924,32.7364886]]},"properties":{"@id":"way/320366540","layer":"-1","tunnel":"culvert","waterway":"river"},"id":"way/320366540"},
{"type":"Feature","geometry":{"type":"LineString","coordinates":[[-114.7154584,32.7394521],[-114.7141611,32.7371822]]},"properties":{"@id":"way/320366546","waterway":"river"},"id":"way/320366546"},
{"type":"Feature","geometry":{"type":"LineString","coordinates":[[-114.7171128,32.7378808],[-114.71333,32.7349897]]},"properties":{"@id":"way/320366547","waterway":"river"},"id":"way/320366547"},
{"type":"Feature","geometry":{"type":"LineString","coordinates":[[-109.7156819,32.8470317],[-109.7171643,32.8480479]]},"properties":{"@id":"way/321076530","boat":"no","name":"Gila River","waterway":"river"},"id":"way/321076530"},
{"type":"Feature","geometry":{"type":"LineString","coordinates":[[-110.9592051,31.4234768],[-110.9635198,31.4435405]]},"properties":{"@id":"way/321136024","intermittent":"yes","name":"Potrero Creek","waterway":"river"},"id":"way/321136024"},
{"type":"Feature","geometry":{"type":"LineString","coordinates":[[-111.0055107,33.458766],[-110.996579,33.6471357]]},"properties":{"@id":"way/321793382","intermittent":"yes","name":"Pinto Creek","waterway":"river"},"id":"way/321793382"},
{"type":"Feature","geometry":{"type":"LineString","coordinates":[[-111.2582127,33.2971312],[-111.2637326,33.2978019]]},"properties":{"@id":"way/321887198","intermittent":"yes","waterway":"river"},"id":"way/321887198"},
{"type":"Feature","geometry":{"type":"LineString","coordinates":[[-111.208546,33.302239],[-111.2136493,33.2984174]]},"properties":{"@id":"way/321887223","intermittent":"yes","waterway":"river"},"id":"way/321887223"},
{"type":"Feature","geometry":{"type":"LineString","coordinates":[[-111.190354,33.309277],[-111.208546,33.302239]]},"properties":{"@id":"way/321887265","intermittent":"yes","waterway":"river"},"id":"way/321887265"},
{"type":"Feature","geometry":{"type":"LineString","coordinates":[[-111.161675,33.3173],[-111.1952192,33.2878204]]},"properties":{"@id":"way/321890402","intermittent":"yes","waterway":"river"},"id":"way/321890402"},
{"type":"Feature","geometry":{"type":"LineString","coordinates":[[-111.104765,33.123086],[-111.099222,33.120432]]},"properties":{"@id":"way/322168568","intermittent":"yes","waterway":"river"},"id":"way/322168568"},
{"type":"Feature","geometry":{"type":"LineString","coordinates":[[-111.099222,33.120432],[-111.098252,33.114026]]},"properties":{"@id":"way/322168571","intermittent":"yes","waterway":"river"},"id":"way/322168571"},
{"type":"Feature","geometry":{"type":"LineString","coordinates":[[-111.108564,33.131715],[-111.105086,33.124944]]},"properties":{"@id":"way/322168572","intermittent":"yes","waterway":"river"},"id":"way/322168572"},
{"type":"Feature","geometry":{"type":"LineString","coordinates":[[-111.098252,33.114026],[-111.098964,33.112492]]},"properties":{"@id":"way/322168582","intermittent":"yes","waterway":"river"},"id":"way/322168582"},
{"type":"Feature","geometry":{"type":"LineString","coordinates":[[-111.105086,33.124944],[-111.104765,33.123086]]},"properties":{"@id":"way/322168590","intermittent":"yes","waterway":"river"},"id":"way/322168590"},
{"type":"Feature","geometry":{"type":"LineString","coordinates":[[-111.2468479,33.0995895],[-111.6543054,33.0802015]]},"properties":{"@id":"way/322580642","boat":"no","intermittent":"yes","name":"Gila River","surface":"dirt","waterway":"river"},"id":"way/322580642"},
{"type":"Feature","geometry":{"type":"LineString","coordinates":[[-111.069147,33.084926],[-111.0729693,33.1173092]]},"properties":{"@id":"way/322580732","intermittent":"yes","waterway":"river"},"id":"way/322580732"},
{"type":"Feature","geometry":{"type":"LineString","coordinates":[[-109.8337932,32.9182575],[-109.8347712,32.918905],[-109.835906,32.9195603],[-109.8383242,32.9205719],[-109.8676626,32.9387961],[-109.9157953,32.9892009],[-110.1161014,33.1456857],[-110.1234837,33.1569621],[-110.1238581,33.1572502],[-110.135445,33.166048],[-110.1358125,33.1663421],[-110.3436689,33.2181705]]},"properties":{"@id":"way/322827073","boat":"no","name":"Gila River","waterway":"river"},"id":"way/322827073"},
{"type":"Feature","geometry":{"type":"LineString","coordinates":[[-109.8340043,32.917853],[-109.835906,32.9195603]]},"properties":{"@id":"way/322827074","boat":"no","name":"Gila River","waterway":"river"},"id":"way/322827074"},
{"type":"Feature","geometry":{"type":"LineString","coordinates":[[-109.8329208,32.9176272],[-109.8340043,32.917853],[-109.8383242,32.9205719]]},"properties":{"@id":"way/322827075","boat":"no","name":"Gila River","waterway":"river"},"id":"way/322827075"},
{"type":"Feature","geometry":{"type":"LineString","coordinates":[[-111.0292405,33.1395834],[-111.0321481,33.1285981]]},"properties":{"@id":"way/322931764","intermittent":"yes","waterway":"river"},"id":"way/322931764"},
{"type":"Feature","geometry":{"type":"LineString","coordinates":[[-111.035383,33.131749],[-111.0321481,33.1285981],[-111.0269712,33.1104562]]},"properties":{"@id":"way/322931765","intermittent":"yes","waterway":"river"},"id":"way/322931765"},
{"type":"Feature","geometry":{"type":"LineString","coordinates":[[-109.8208475,32.8942978],[-109.8203863,32.9110855]]},"properties":{"@id":"way/323260482","boat":"no","oneway":"yes","surface":"dirt","waterway":"river"},"id":"way/323260482"},
{"type":"Feature","geometry":{"type":"LineString","coordinates":[[-109.846073,32.9503057],[-109.851414,32.9478535]]},"properties":{"@id":"way/323814258","boat":"no","intermittent":"yes","oneway":"yes","surface":"dirt","waterway":"river"},"id":"way/323814258"},
{"type":"Feature","geometry":{"type":"LineString","coordinates":[[-109.851414,32.9478535],[-109.8519326,32.9471282]]},"properties":{"@id":"way/323814259","boat":"no","intermittent":"yes","oneway":"yes","surface":"dirt","tunnel":"yes","waterway":"river"},"id":"way/323814259"},
{"type":"Feature","geometry":{"type":"LineString","coordinates":[[-109.8180851,32.9319483],[-109.8347712,32.918905]]},"properties":{"@id":"way/323814264","boat":"no","waterway":"river"},"id":"way/323814264"},
{"type":"Feature","geometry":{"type":"LineString","coordinates":[[-109.8519326,32.9471282],[-109.8676626,32.9387961]]},"properties":{"@id":"way/323814265","boat":"no","intermittent":"yes","oneway":"yes","surface":"dirt","waterway":"river"},"id":"way/323814265"},
{"type":"Feature","geometry":{"type":"LineString","coordinates":[[-109.8592506,32.968707],[-109.9157953,32.9892009]]},"properties":{"@id":"way/323814268","boat":"no","intermittent":"yes","surface":"dirt","waterway":"river"},"id":"way/323814268"},
{"type":"Feature","geometry":{"type":"LineString","coordinates":[[-111.157175,32.99944],[-111.212372,33.084685]]},"properties":{"@id":"way/324214622","intermittent":"yes","name":"Box O Wash","seasonal":"no","waterway":"river"},"id":"way/324214622"},
{"type":"Feature","geometry":{"type":"LineString","coordinates":[[-111.065093,32.988903],[-111.182722,33.091603]]},"properties":{"@id":"way/324214625","intermittent":"yes","name":"Donnelly Wash","seasonal":"no","waterway":"river"},"id":"way/324214625"},
{"type":"Feature","geometry":{"type":"LineString","coordinates":[[-111.157784,33.070549],[-111.180145,33.093168]]},"properties":{"@id":"way/324214627","intermittent":"yes","seasonal":"no","waterway":"river"},"id":"way/324214627"},
{"type":"Feature","geometry":{"type":"LineString","coordinates":[[-110.540858,31.905098],[-110.640107,32.019472]]},"properties":{"@id":"way/332922000","intermittent":"yes","name":"Cienega Creek","seasonal":"no","waterway":"river"},"id":"way/332922000"},
{"type":"Feature","geometry":{"type":"LineString","coordinates":[[-110.7584757,32.1595739],[-110.8175708,32.1995877]]},"properties":{"@id":"way/332922038","intermittent":"yes","name":"Pantano Wash","waterway":"river"},"id":"way/332922038"},
{"type":"Feature","geometry":{"type":"LineString","coordinates":[[-110.679357,32.035727],[-110.6971962,32.0499249]]},"properties":{"@id":"way/332922039","intermittent":"yes","name":"Pantano Wash","seasonal":"no","waterway":"river"},"id":"way/332922039"},
{"type":"Feature","geometry":{"type":"LineString","coordinates":[[-110.6971962,32.0499249],[-110.725207,32.094181]]},"properties":{"@id":"way/332922040","intermittent":"yes","name":"Pantano Wash","seasonal":"no","waterway":"river"},"id":"way/332922040"},
{"type":"Feature","geometry":{"type":"LineString","coordinates":[[-110.725207,32.094181],[-110.7482225,32.1485714]]},"properties":{"@id":"way/332922041","intermittent":"yes","name":"Pantano Wash","seasonal":"no","waterway":"river"},"id":"way/332922041"},
{"type":"Feature","geometry":{"type":"LineString","coordinates":[[-110.6834356,32.3785148],[-110.6875057,32.3768175]]},"properties":{"@id":"way/333025770","intermittent":"yes","name":"Bear Creek","waterway":"river"},"id":"way/333025770"},
{"type":"Feature","geometry":{"type":"LineString","coordinates":[[-112.8591034,33.4210042],[-112.8589904,33.3519931]]},"properties":{"@id":"way/334236200","boat":"no","intermittent":"yes","oneway":"yes","surface":"dirt","waterway":"river"},"id":"way/334236200"},
{"type":"Feature","geometry":{"type":"LineString","coordinates":[[-110.1890677,33.4518534],[-110.4262813,33.3877694],[-110.4289373,33.386541]]},"properties":{"@id":"way/338450099","intermittent":"no","name":"San Carlos River","seasonal":"no","waterway":"river"},"id":"way/338450099"},
{"type":"Feature","geometry":{"type":"LineString","coordinates":[[-110.586737,32.876223],[-110.7156672,32.8382386]]},"properties":{"@id":"way/340540816","intermittent":"yes","name":"Aravaipa Creek","seasonal":"no","waterway":"river"},"id":"way/340540816"},
{"type":"Feature","geometry":{"type":"LineString","coordinates":[[-112.7286187,33.3557156],[-112.7259895,33.3512933]]},"properties":{"@id":"way/341702856","gnis:feature_id":"29784","name":"Hassayampa River","source":"National Hydrography Dataset","surface":"dirt","waterway":"river","website":"https://geonames.usgs.gov/pls/gnispublic/f?p=gnispq:3:::NO::P3_FID:29784"},"id":"way/341702856"},
{"type":"Feature","geometry":{"type":"LineString","coordinates":[[-110.6024431,31.4812119],[-110.5895323,31.3900219]]},"properties":{"@id":"way/344536852","intermittent":"yes","name":"Santa Cruz River","seasonal":"no","waterway":"river"},"id":"way/344536852"},
{"type":"Feature","geometry":{"type":"LineString","coordinates":[[-108.8895423,33.3137693],[-109.3023536,33.1056548]]},"properties":{"@id":"way/363637829","name":"San Francisco River","seasonal":"no","waterway":"river"},"id":"way/363637829"},
{"type":"Feature","geometry":{"type":"LineString","coordinates":[[-108.0183841,32.9454672],[-108.0178791,32.9429429]]},"properties":{"@id":"way/365548632","intermittent":"no","name":"Mimbres River","source":"USGS","waterway":"river"},"id":"way/365548632"},
{"type":"Feature","geometry":{"type":"LineString","coordinates":[[-112.3231574,33.3840155],[-112.32431,33.3842843]]},"properties":{"@id":"way/370370323","intermittent":"yes","layer":"-1","surface":"dirt","waterway":"river"},"id":"way/370370323"},
{"type":"Feature","geometry":{"type":"LineString","coordinates":[[-112.3222537,33.3845512],[-112.3224473,33.3842285]]},"properties":{"@id":"way/370370324","intermittent":"yes","layer":"-1","surface":"concrete","tunnel":"culvert","waterway":"river"},"id":"way/370370324"},
{"type":"Feature","geometry":{"type":"LineString","coordinates":[[-112.3207027,33.384893],[-112.3222537,33.3845512]]},"properties":{"@id":"way/370370326","intermittent":"yes","layer":"-1","surface":"dirt","waterway":"river"},"id":"way/370370326"},
{"type":"Feature","geometry":{"type":"LineString","coordinates":[[-114.96556,31.9214646],[-114.806303,31.8164206]]},"properties":{"@id":"way/376503022","name":"Río Colorado","name:en":"Colorado River","name:es":"Río Colorado","order:strahler":"9","source":"landsat","waterway":"river"},"id":"way/376503022"},
{"type":"Feature","geometry":{"type":"LineString","coordinates":[[-111.0407013,31.7237982],[-110.9625752,31.9260343]]},"properties":{"@id":"way/386574578","boat":"no","intermittent":"yes","name":"Santa Cruz River","waterway":"river","wikipedia":"en:Santa Cruz River (Arizona)"},"id":"way/386574578"},
{"type":"Feature","geometry":{"type":"LineString","coordinates":[[-111.0417442,31.6297936],[-111.0407013,31.7237982]]},"properties":{"@id":"way/386576623","boat":"no","intermittent":"yes","name":"Santa Cruz River","waterway":"river","wikipedia":"en:Santa Cruz River (Arizona)"},"id":"way/386576623"},
{"type":"Feature","geometry":{"type":"LineString","coordinates":[[-110.8501749,31.3339163],[-110.9610346,31.4505652],[-110.9734374,31.4584713]]},"properties":{"@id":"way/386576624","boat":"no","intermittent":"yes","name":"Santa Cruz River","waterway":"river","wikipedia":"en:Santa Cruz River (Arizona)"},"id":"way/386576624"},
{"type":"Feature","geometry":{"type":"LineString","coordinates":[[-109.2655869,31.3195425],[-109.2551232,31.3138573]]},"properties":{"@id":"way/404563104","intermittent":"yes","source":"Bing","waterway":"river"},"id":"way/404563104"},
{"type":"Feature","geometry":{"type":"LineString","coordinates":[[-110.9554276,31.1481259],[-110.8457574,30.8393092]]},"properties":{"@id":"way/409385513","alt_name":"Río Alisos","intermittent":"yes","name":"Río Bambuto","waterway":"river"},"id":"way/409385513"},
{"type":"Feature","geometry":{"type":"LineString","coordinates":[[-109.7359262,32.8711506],[-109.736187,32.8709923]]},"properties":{"@id":"way/413661922","boat":"no","bridge":"aqueduct","intermittent":"yes","layer":"1","waterway":"river"},"id":"way/413661922"},
{"type":"Feature","geometry":{"type":"LineString","coordinates":[[-110.6026214,31.283791],[-110.7451111,31.1993786]]},"properties":{"@id":"way/420145453","intermittent":"yes","name":"Rio Santa Cruz","name:en":"Santa Cruz River","seasonal":"no","waterway":"river"},"id":"way/420145453"},
{"type":"Feature","geometry":{"type":"LineString","coordinates":[[-110.7451111,31.1993786],[-110.8501749,31.3339163]]},"properties":{"@id":"way/420145883","boat":"no","intermittent":"yes","name":"Rio Santa Cruz","name:en":"Santa Cruz River","waterway":"river"},"id":"way/420145883"},
{"type":"Feature","geometry":{"type":"LineString","coordinates":[[-110.8843352,31.4809448],[-110.9292466,31.4796687]]},"properties":{"@id":"way/420146425","intermittent":"yes","name":"Sonoita Creek","waterway":"river"},"id":"way/420146425"},
{"type":"Feature","geometry":{"type":"LineString","coordinates":[[-110.1664521,31.6113722],[-110.172195,31.6238231]]},"properties":{"@id":"way/428982357","highway":"path","intermittent":"no","name":"San Pedro River","waterway":"river"},"id":"way/428982357"},
{"type":"Feature","geometry":{"type":"LineString","coordinates":[[-110.1064339,31.3941391],[-110.1020858,31.4281427],[-110.1031836,31.4319851],[-110.1664521,31.6113722]]},"properties":{"@id":"way/428982358","intermittent":"no","name":"San Pedro River","waterway":"river"},"id":"way/428982358"},
{"type":"Feature","geometry":{"type":"LineString","coordinates":[[-114.8094857,32.51079],[-114.8135922,32.4940383]]},"properties":{"@id":"way/433816643","admin_level":"2","boundary":"administrative","intermittent":"yes","name":"Río Colorado","note":"United States of America — Estados Unidos Mexicanos","order:strahler":"9","source":"Yahoo;bing","waterway":"river"},"id":"way/433816643"},
{"type":"Feature","geometry":{"type":"LineString","coordinates":[[-111.0122503,32.116523],[-110.9926349,32.1221237]]},"properties":{"@id":"way/436643086","boat":"no","intermittent":"yes","name":"West Branch Santa Cruz River","waterway":"river"},"id":"way/436643086"},
{"type":"Feature","geometry":{"type":"LineString","coordinates":[[-112.9996714,33.4131459],[-112.9940281,33.4119459],[-112.9789433,33.400952]]},"properties":{"@id":"way/477291597","intermittent":"yes","waterway":"river"},"id":"way/477291597"},
{"type":"Feature","geometry":{"type":"LineString","coordinates":[[-113.0007953,33.4192209],[-112.9940281,33.4119459]]},"properties":{"@id":"way/477291600","intermittent":"yes","waterway":"river"},"id":"way/477291600"},
{"type":"Feature","geometry":{"type":"LineString","coordinates":[[-112.9973674,33.4210433],[-112.9798742,33.4143746]]},"properties":{"@id":"way/477291601","boat":"no","intermittent":"yes","waterway":"river"},"id":"way/477291601"},
{"type":"Feature","geometry":{"type":"LineString","coordinates":[[-110.1020858,31.4281427],[-110.1031836,31.4319851]]},"properties":{"@id":"way/487257127","intermittent":"yes","waterway":"river"},"id":"way/487257127"},
{"type":"Feature","geometry":{"type":"LineString","coordinates":[[-110.5310075,31.6677469],[-110.1940711,31.7226943]]},"properties":{"@id":"way/487472447","intermittent":"yes","name":"Babacomari River","waterway":"river"},"id":"way/487472447"},
{"type":"Feature","geometry":{"type":"LineString","coordinates":[[-112.3228637,33.3840073],[-112.3231574,33.3840155]]},"properties":{"@id":"way/524421427","intermittent":"yes","layer":"-1","surface":"dirt","tunnel":"culvert","waterway":"river"},"id":"way/524421427"},
{"type":"Feature","geometry":{"type":"LineString","coordinates":[[-112.3224473,33.3842285],[-112.3228637,33.3840073]]},"properties":{"@id":"way/524421428","intermittent":"yes","layer":"-1","surface":"dirt","waterway":"river"},"id":"way/524421428"},
{"type":"Feature","geometry":{"type":"LineString","coordinates":[[-109.007281,31.9259727],[-109.0366137,32.0392601]]},"properties":{"@id":"way/525480625","intermittent":"yes","waterway":"river"},"id":"way/525480625"},
{"type":"Feature","geometry":{"type":"LineString","coordinates":[[-109.1250247,32.1935867],[-109.2284292,32.3084718],[-109.2325652,32.3112057]]},"properties":{"@id":"way/525480626","intermittent":"yes","waterway":"river"},"id":"way/525480626"},
{"type":"Feature","geometry":{"type":"LineString","coordinates":[[-109.2325652,32.3112057],[-109.328895,32.386395],[-109.3712944,32.4592347]]},"properties":{"@id":"way/525480627","intermittent":"yes","waterway":"river"},"id":"way/525480627"},
{"type":"Feature","geometry":{"type":"LineString","coordinates":[[-109.4120917,32.4952968],[-109.469841,32.534653]]},"properties":{"@id":"way/525480628","intermittent":"yes","waterway":"river"},"id":"way/525480628"},
{"type":"Feature","geometry":{"type":"LineString","coordinates":[[-109.469841,32.534653],[-109.535868,32.615764]]},"properties":{"@id":"way/525480629","intermittent":"yes","waterway":"river"},"id":"way/525480629"},
{"type":"Feature","geometry":{"type":"LineString","coordinates":[[-109.535868,32.615764],[-109.548767,32.689628]]},"properties":{"@id":"way/525480630","intermittent":"yes","waterway":"river"},"id":"way/525480630"},
{"type":"Feature","geometry":{"type":"LineString","coordinates":[[-109.548767,32.689628],[-109.6476751,32.8283773]]},"properties":{"@id":"way/525480631","gnis:feature_id":"435","intermittent":"yes","name":"San Simon River","waterway":"river"},"id":"way/525480631"},
{"type":"Feature","geometry":{"type":"LineString","coordinates":[[-109.0366137,32.0392601],[-109.1250247,32.1935867]]},"properties":{"@id":"way/525480632","intermittent":"yes","waterway":"river"},"id":"way/525480632"},
{"type":"Feature","geometry":{"type":"LineString","coordinates":[[-112.863182,33.3483136],[-112.8640347,33.3470171]]},"properties":{"@id":"way/526450507","boat":"no","intermittent":"yes","oneway":"yes","surface":"dirt","waterway":"river"},"id":"way/526450507"},
{"type":"Feature","geometry":{"type":"LineString","coordinates":[[-112.8630973,33.3484367],[-112.863182,33.3483136]]},"properties":{"@id":"way/526450508","boat":"no","intermittent":"yes","layer":"-1","oneway":"yes","surface":"dirt","tunnel":"culvert","waterway":"river"},"id":"way/526450508"},
{"type":"Feature","geometry":{"type":"LineString","coordinates":[[-112.8646772,33.3470094],[-112.8647952,33.3470106]]},"properties":{"@id":"way/526450509","boat":"no","intermittent":"yes","layer":"-1","oneway":"yes","surface":"dirt","tunnel":"culvert","waterway":"river"},"id":"way/526450509"},
{"type":"Feature","geometry":{"type":"LineString","coordinates":[[-112.862971,33.3470265],[-112.8640347,33.3470171],[-112.8646772,33.3470094]]},"properties":{"@id":"way/526450510","boat":"no","intermittent":"yes","oneway":"yes","surface":"dirt","waterway":"river"},"id":"way/526450510"},
{"type":"Feature","geometry":{"type":"LineString","coordinates":[[-109.820825,32.893748],[-109.8208475,32.8942978]]},"properties":{"@id":"way/541081867","boat":"no","layer":"-1","oneway":"yes","surface":"dirt","tunnel":"culvert","waterway":"river"},"id":"way/541081867"},
{"type":"Feature","geometry":{"type":"LineString","coordinates":[[-109.8206377,32.8909196],[-109.8207888,32.892441]]},"properties":{"@id":"way/541081873","boat":"no","oneway":"yes","surface":"dirt","waterway":"river"},"id":"way/541081873"},
{"type":"Feature","geometry":{"type":"LineString","coordinates":[[-111.5141273,31.4444401],[-111.5258475,31.419649],[-111.528402,31.4149848],[-111.5344316,31.4064051],[-111.5409976,31.4030262],[-111.6817587,31.3362402],[-111.6822396,31.3339855],[-111.6802901,31.3215365],[-111.6803813,31.3195018],[-111.6873807,31.3034196],[-111.6875911,31.2996382],[-112.0290792,30.6726887]]},"properties":{"@id":"way/543283929","intermittent":"yes","name":"Río Seco/Sasabe","waterway":"river"},"id":"way/543283929"},
{"type":"Feature","geometry":{"type":"LineString","coordinates":[[-110.9974008,31.191907],[-110.9554276,31.1481259]]},"properties":{"@id":"way/543283930","intermittent":"yes","name":"Río Alisos","name:es":"La Meza","waterway":"river"},"id":"way/543283930"},
{"type":"Feature","geometry":{"type":"LineString","coordinates":[[-112.3580663,31.7223108],[-112.6632451,31.7703957]]},"properties":{"@id":"way/543364083","intermittent":"yes","name":"Río Sonoyta","waterway":"river"},"id":"way/543364083"},
{"type":"Feature","geometry":{"type":"LineString","coordinates":[[-113.1463157,31.9145849],[-113.3323217,31.365492]]},"properties":{"@id":"way/543364089","intermittent":"yes","name":"Río Sonoyta","waterway":"river"},"id":"way/543364089"},
{"type":"Feature","geometry":{"type":"LineString","coordinates":[[-113.3312327,31.3202889],[-113.3311649,31.3200403]]},"properties":{"@id":"way/543364090","intermittent":"yes","layer":"-1","name":"Río Sonoyta","tunnel":"culvert","waterway":"river"},"id":"way/543364090"},
{"type":"Feature","geometry":{"type":"LineString","coordinates":[[-113.3323217,31.365492],[-113.3312327,31.3202889]]},"properties":{"@id":"way/543364091","intermittent":"yes","name":"Río Sonoyta","waterway":"river"},"id":"way/543364091"},
{"type":"Feature","geometry":{"type":"LineString","coordinates":[[-113.3311649,31.3200403],[-113.3234779,31.3027675],[-113.3505178,31.2702522]]},"properties":{"@id":"way/543364099","intermittent":"yes","name":"Río Sonoyta","waterway":"river"},"id":"way/543364099"},
{"type":"Feature","geometry":{"type":"LineString","coordinates":[[-113.3323217,31.365492],[-113.3234779,31.3027675]]},"properties":{"@id":"way/543364102","intermittent":"yes","waterway":"river"},"id":"way/543364102"},
{"type":"Feature","geometry":{"type":"LineString","coordinates":[[-110.9271602,31.3526795],[-110.9403896,31.3792298]]},"properties":{"@id":"way/549256525","intermittent":"no","name":"Nogales Wash","waterway":"river"},"id":"way/549256525"},
{"type":"Feature","geometry":{"type":"LineString","coordinates":[[-115.1663867,32.0753633],[-114.96556,31.9214646]]},"properties":{"@id":"way/550498389","name":"Río Colorado","name:en":"Colorado River","name:es":"Río Colorado","order:strahler":"9","source":"landsat","waterway":"river"},"id":"way/550498389"},
{"type":"Feature","geometry":{"type":"LineString","coordinates":[[-111.8325376,33.1376414],[-111.8465055,33.1504454],[-111.8500172,33.148282]]},"properties":{"@id":"way/582736000","intermittent":"yes","waterway":"river"},"id":"way/582736000"},
{"type":"Feature","geometry":{"type":"LineString","coordinates":[[-114.8489606,32.5030215],[-114.872122,32.4878942]]},"properties":{"@id":"way/605254518","intermittent":"yes","source":"Yahoo","waterway":"river"},"id":"way/605254518"},
{"type":"Feature","geometry":{"type":"LineString","coordinates":[[-110.763713,31.5360211],[-110.869657,31.4923682]]},"properties":{"@id":"way/624289563","intermittent":"no","name":"Sonoita Creek","waterway":"river"},"id":"way/624289563"},
{"type":"Feature","geometry":{"type":"LineString","coordinates":[[-110.9292466,31.4796687],[-110.9791151,31.4611605]]},"properties":{"@id":"way/624295153","intermittent":"yes","name":"Sonoita Creek","waterway":"river"},"id":"way/624295153"},
{"type":"Feature","geometry":{"type":"LineString","coordinates":[[-108.1242443,33.302035],[-108.1533628,33.2733485]]},"properties":{"@id":"way/634546331","boat":"no","name":"East Fork Gila River","source":"Bing","waterway":"river"},"id":"way/634546331"},
{"type":"Feature","geometry":{"type":"LineString","coordinates":[[-108.1502958,33.1938221],[-108.2061727,33.1802819]]},"properties":{"@id":"way/634546336","boat":"no","name":"East Fork Gila River","source":"Bing","waterway":"river"},"id":"way/634546336"},
{"type":"Feature","geometry":{"type":"LineString","coordinates":[[-108.5994453,32.9069209],[-108.9932635,32.6761634]]},"properties":{"@id":"way/634546365","boat":"no","name":"Gila River","waterway":"river"},"id":"way/634546365"},
{"type":"Feature","geometry":{"type":"LineString","coordinates":[[-108.1533628,33.2733485],[-108.1699834,33.2602881]]},"properties":{"@id":"way/635033788","boat":"no","name":"East Fork Gila River","source":"Bing","waterway":"river"},"id":"way/635033788"},
{"type":"Feature","geometry":{"type":"LineString","coordinates":[[-108.1619898,33.2181524],[-108.1502958,33.1938221]]},"properties":{"@id":"way/635033793","boat":"no","name":"East Fork Gila River","source":"Bing","waterway":"river"},"id":"way/635033793"},
{"type":"Feature","geometry":{"type":"LineString","coordinates":[[-108.2077378,33.1795104],[-108.4081557,33.0719155]]},"properties":{"@id":"way/635033794","boat":"no","name":"Gila River","waterway":"river"},"id":"way/635033794"},
{"type":"Feature","geometry":{"type":"LineString","coordinates":[[-111.128776,32.3926342],[-111.1498122,32.4038003],[-111.2049222,32.4222196],[-111.2253671,32.4299273],[-111.3399647,32.4980307]]},"properties":{"@id":"way/646132615","boat":"no","intermittent":"no","name":"Santa Cruz River","waterway":"river","wikidata":"Q2343949","wikipedia":"en:Santa Cruz River (Arizona)"},"id":"way/646132615"},
{"type":"Feature","geometry":{"type":"LineString","coordinates":[[-108.9115262,33.3941293],[-108.9053249,33.3347838]]},"properties":{"@id":"way/653709932","intermittent":"yes","name":"San Francisco River","waterway":"river"},"id":"way/653709932"},
{"type":"Feature","geometry":{"type":"LineString","coordinates":[[-112.2542127,33.3834402],[-112.254398,33.3834097]]},"properties":{"@id":"way/662058009","boat":"no","gnis:feature_id":"33995","intermittent":"yes","layer":"-1","name":"Salt River","source":"Yahoo,local_knowledge","tunnel":"culvert","waterway":"river","website":"https://geonames.usgs.gov/pls/gnispublic/f?p=gnispq:3:::NO::P3_FID:33995"},"id":"way/662058009"},
{"type":"Feature","geometry":{"type":"LineString","coordinates":[[-112.254398,33.3834097],[-112.2899103,33.3816992],[-112.2968199,33.3812717]]},"properties":{"@id":"way/662058010","boat":"no","gnis:feature_id":"33995","intermittent":"yes","name":"Salt River","source":"Yahoo,local_knowledge","waterway":"river","website":"https://geonames.usgs.gov/pls/gnispublic/f?p=gnispq:3:::NO::P3_FID:33995"},"id":"way/662058010"},
{"type":"Feature","geometry":{"type":"LineString","coordinates":[[-109.2551232,31.3138573],[-109.2563393,31.2843097],[-109.302792,31.0745314],[-109.3008917,31.0226931],[-109.3043119,31.0159346],[-109.3045704,31.0136078],[-109.2690007,30.9327674]]},"properties":{"@id":"way/662222552","intermittent":"yes","name":"Río San Bernardino","source":"Bing","waterway":"river"},"id":"way/662222552"},
{"type":"Feature","geometry":{"type":"LineString","coordinates":[[-109.3008917,31.0226931],[-109.3043119,31.0159346],[-109.3045704,31.0136078]]},"properties":{"@id":"way/662222561","intermittent":"yes","name":"Río San Bernardino","waterway":"river"},"id":"way/662222561"},
{"type":"Feature","geometry":{"type":"LineString","coordinates":[[-114.9278261,32.1411918],[-114.9467321,32.1089205]]},"properties":{"@id":"way/667981006","source":"landsat","waterway":"river"},"id":"way/667981006"},
{"type":"Feature","geometry":{"type":"LineString","coordinates":[[-114.9276485,32.1412031],[-114.9278261,32.1411918]]},"properties":{"@id":"way/667981020","layer":"-1","source":"landsat","tunnel":"culvert","waterway":"river"},"id":"way/667981020"},
{"type":"Feature","geometry":{"type":"LineString","coordinates":[[-114.9268857,32.1410438],[-114.9268914,32.141039]]},"properties":{"@id":"way/667981021","source":"Bing","waterway":"river"},"id":"way/667981021"},
{"type":"Feature","geometry":{"type":"LineString","coordinates":[[-112.3416102,31.0976392],[-112.3513849,30.9547941]]},"properties":{"@id":"way/668095250","intermittent":"yes","name":"El Coyote","source":"Bing","waterway":"river"},"id":"way/668095250"},
{"type":"Feature","geometry":{"type":"LineString","coordinates":[[-112.1652174,31.2535884],[-112.1958482,31.1884732],[-112.2027683,31.1803686],[-112.2867167,31.0873674],[-112.306881,31.0555627],[-112.3513849,30.9547941]]},"properties":{"@id":"way/668095252","intermittent":"yes","name":"El Plomo","source":"Bing","waterway":"river"},"id":"way/668095252"},
{"type":"Feature","geometry":{"type":"LineString","coordinates":[[-111.0094817,32.3735036],[-111.0646252,32.3255472]]},"properties":{"@id":"way/698704620","boat":"no","intermittent":"yes","name":"Cañada del Oro","waterway":"river","wikidata":"Q5055567","wikipedia":"en:Cañada del Oro"},"id":"way/698704620"},
{"type":"Feature","geometry":{"type":"LineString","coordinates":[[-111.0094436,32.3735917],[-111.0094817,32.3735036]]},"properties":{"@id":"way/698704621","boat":"no","ford":"yes","intermittent":"yes","name":"Cañada del Oro","tidal":"no","waterway":"river","wikidata":"Q5055567","wikipedia":"en:Cañada del Oro"},"id":"way/698704621"},
{"type":"Feature","geometry":{"type":"LineString","coordinates":[[-110.9364372,31.2971877],[-110.9424844,31.3327447]]},"properties":{"@id":"way/753801371","intermittent":"no","layer":"-1","name":"Arroyo Los Nogales","tunnel":"culvert","waterway":"river"},"id":"way/753801371"},
{"type":"Feature","geometry":{"type":"LineString","coordinates":[[-108.0178791,32.9429429],[-107.8669337,32.7307879]]},"properties":{"@id":"way/769821566","name":"Mimbres River","waterway":"river"},"id":"way/769821566"},
{"type":"Feature","geometry":{"type":"LineString","coordinates":[[-108.3234043,32.6332756],[-108.1782357,32.6093482]]},"properties":{"@id":"way/769825125","intermittent":"yes","name":"Oak Grove Creek","waterway":"river"},"id":"way/769825125"},
{"type":"Feature","geometry":{"type":"LineString","coordinates":[[-108.177887,32.8578204],[-108.1528597,32.7432333]]},"properties":{"@id":"way/769826771","intermittent":"yes","name":"Twin Sisters Creek","waterway":"river"},"id":"way/769826771"},
{"type":"Feature","geometry":{"type":"LineString","coordinates":[[-108.3571609,32.606116],[-108.1356153,32.5638475]]},"properties":{"@id":"way/769827987","intermittent":"yes","name":"Cherry Creek","waterway":"river"},"id":"way/769827987"},
{"type":"Feature","geometry":{"type":"LineString","coordinates":[[-108.2124818,32.8410605],[-108.2192898,32.6711727]]},"properties":{"@id":"way/769829036","intermittent":"yes","name":"Rio de Arenas","waterway":"river"},"id":"way/769829036"},
{"type":"Feature","geometry":{"type":"LineString","coordinates":[[-108.1266748,32.7607274],[-108.0143183,32.4750527]]},"properties":{"@id":"way/769832553","intermittent":"yes","name":"Whitewater Creek","waterway":"river"},"id":"way/769832553"},
{"type":"Feature","geometry":{"type":"LineString","coordinates":[[-108.0792006,32.8500546],[-108.1266748,32.7607274]]},"properties":{"@id":"way/769833231","intermittent":"yes","name":"Hanover Creek","waterway":"river"},"id":"way/769833231"},
{"type":"Feature","geometry":{"type":"LineString","coordinates":[[-108.145833,32.8250934],[-108.1528597,32.7432333],[-108.1682016,32.6024894]]},"properties":{"@id":"way/769840815","intermittent":"yes","name":"Cameron Creek","waterway":"river"},"id":"way/769840815"},
{"type":"Feature","geometry":{"type":"LineString","coordinates":[[-110.9799893,32.392434],[-110.9961961,32.3841219],[-111.0006021,32.3810814],[-111.0005065,32.3808048],[-111.0006539,32.3806812],[-111.0039073,32.3785328]]},"properties":{"@id":"way/776069790","boat":"no","intermittent":"yes","name":"Cañada del Oro","waterway":"river","wikidata":"Q5055567","wikipedia":"en:Cañada del Oro"},"id":"way/776069790"},
{"type":"Feature","geometry":{"type":"LineString","coordinates":[[-110.9488583,32.0234207],[-110.9726896,32.0711721]]},"properties":{"@id":"way/776648857","intermittent":"yes","name":"Lee Moore Wash","waterway":"river"},"id":"way/776648857"},
{"type":"Feature","geometry":{"type":"LineString","coordinates":[[-111.7357394,32.6983759],[-111.7503847,32.7119973]]},"properties":{"@id":"way/798194840","boat":"no","destination":"Gila River","fixme":"Bridge sign on I-8 says \"Greenes Wash\" rather than \"Greene Wash\"","gnis:feature_id":"5368","intermittent":"yes","name":"Greene Wash","waterway":"river","website":"https://geonames.usgs.gov/pls/gnispublic/f?p=gnispq:3:::NO::P3_FID:5368"},"id":"way/798194840"},
{"type":"Feature","geometry":{"type":"LineString","coordinates":[[-111.7128012,32.6817121],[-111.7357394,32.6983759]]},"properties":{"@id":"way/798194841","boat":"no","destination":"Gila River","fixme":"Bridge sign on I-8 says \"Greenes Wash\" rather than \"Greene Wash\"","gnis:feature_id":"5368","intermittent":"yes","name":"Greene Wash","waterway":"river","website":"https://geonames.usgs.gov/pls/gnispublic/f?p=gnispq:3:::NO::P3_FID:5368"},"id":"way/798194841"},
{"type":"Feature","geometry":{"type":"LineString","coordinates":[[-111.4673388,32.5774701],[-111.4835122,32.5815291],[-111.5641719,32.5896461]]},"properties":{"@id":"way/798194842","boat":"no","destination":"Gila River","gnis:feature_id":"5367","intermittent":"no","name":"Greene Canal","note":"This canal was mistagged as the Santa Cruz River.","source":"National Hydrography Dataset","waterway":"river"},"id":"way/798194842"},
{"type":"Feature","geometry":{"type":"LineString","coordinates":[[-111.6719766,32.6095717],[-111.7128012,32.6817121]]},"properties":{"@id":"way/798194843","boat":"no","destination":"Gila River","fixme":"Bridge sign on I-8 says \"Greenes Wash\" rather than \"Greene Wash\"","gnis:feature_id":"5368","intermittent":"yes","name":"Greene Wash","waterway":"river","website":"https://geonames.usgs.gov/pls/gnispublic/f?p=gnispq:3:::NO::P3_FID:5368"},"id":"way/798194843"},
{"type":"Feature","geometry":{"type":"LineString","coordinates":[[-112.0089831,31.6298191],[-112.2480267,31.808925],[-112.301448,31.8045016]]},"properties":{"@id":"way/802098326","gnis:feature_id":"2912","intermittent":"yes","name":"Chukut Kuk Wash","source":"National Hydrography Dataset","waterway":"river"},"id":"way/802098326"},
{"type":"Feature","geometry":{"type":"LineString","coordinates":[[-111.6817587,31.3362402],[-111.6822396,31.3339855]]},"properties":{"@id":"way/802331741","intermittent":"yes","waterway":"river"},"id":"way/802331741"},
{"type":"Feature","geometry":{"type":"LineString","coordinates":[[-111.6802901,31.3215365],[-111.6803813,31.3195018]]},"properties":{"@id":"way/802331742","intermittent":"yes","name":"Rio Seco/Sasabe","waterway":"river"},"id":"way/802331742"},
{"type":"Feature","geometry":{"type":"LineString","coordinates":[[-111.6873807,31.3034196],[-111.6875911,31.2996382]]},"properties":{"@id":"way/802331743","intermittent":"yes","name":"Rio Seco/Sasabe","waterway":"river"},"id":"way/802331743"},
{"type":"Feature","geometry":{"type":"LineString","coordinates":[[-111.5258475,31.419649],[-111.528402,31.4149848]]},"properties":{"@id":"way/802339846","intermittent":"yes","name":"Río Seco/Sasabe","waterway":"river"},"id":"way/802339846"},
{"type":"Feature","geometry":{"type":"LineString","coordinates":[[-111.5344316,31.4064051],[-111.5409976,31.4030262]]},"properties":{"@id":"way/802339847","intermittent":"yes","name":"Río Seco/Sasabe","waterway":"river"},"id":"way/802339847"},
{"type":"Feature","geometry":{"type":"LineString","coordinates":[[-112.2867167,31.0873674],[-112.306881,31.0555627]]},"properties":{"@id":"way/802436929","intermittent":"yes","name":"El Plomo","waterway":"river"},"id":"way/802436929"},
{"type":"Feature","geometry":{"type":"LineString","coordinates":[[-112.1958482,31.1884732],[-112.2027683,31.1803686]]},"properties":{"@id":"way/802438467","intermittent":"yes","name":"El Plomo","waterway":"river"},"id":"way/802438467"},
{"type":"Feature","geometry":{"type":"LineString","coordinates":[[-111.9709396,31.4356892],[-112.139554,31.2652359]]},"properties":{"@id":"way/802444493","intermittent":"yes","name":"El Plomo","waterway":"river"},"id":"way/802444493"},
{"type":"Feature","geometry":{"type":"LineString","coordinates":[[-112.7660219,33.2282697],[-112.7660455,33.2282662]]},"properties":{"@id":"way/824808775","boat":"no","gnis:feature_id":"4462","name":"Enterprise Canal","oneway":"yes","source":"Bing","surface":"ground","waterway":"river","website":"https://geonames.usgs.gov/pls/gnispublic/f?p=gnispq:3:::NO::P3_FID:4462"},"id":"way/824808775"},
{"type":"Feature","geometry":{"type":"LineString","coordinates":[[-112.7663038,33.2281939],[-112.7660219,33.2282697]]},"properties":{"@id":"way/824808776","boat":"no","gnis:feature_id":"4462","layer":"-1","name":"Enterprise Canal","oneway":"yes","source":"Bing","surface":"ground","tunnel":"culvert","waterway":"river","website":"https://geonames.usgs.gov/pls/gnispublic/f?p=gnispq:3:::NO::P3_FID:4462"},"id":"way/824808776"},
{"type":"Feature","geometry":{"type":"LineString","coordinates":[[-110.8175708,32.1995877],[-110.877155,32.2691087]]},"properties":{"@id":"way/825499536","addr:city":"Tucson","addr:postcode":"85710","addr:state":"AZ","intermittent":"yes","name":"Pantano Wash","waterway":"river"},"id":"way/825499536"},
{"type":"Feature","geometry":{"type":"LineString","coordinates":[[-111.5176141,31.1385996],[-111.5240997,31.1370156]]},"properties":{"@id":"way/833990859","intermittent":"yes","waterway":"river"},"id":"way/833990859"},
{"type":"Feature","geometry":{"type":"LineString","coordinates":[[-111.5240997,31.1370156],[-111.5334821,31.1315652]]},"properties":{"@id":"way/833990860","intermittent":"yes","waterway":"river"},"id":"way/833990860"},
{"type":"Feature","geometry":{"type":"LineString","coordinates":[[-110.9250356,32.4184145],[-110.962617,32.3992036],[-110.9677504,32.3976265],[-110.9799893,32.392434],[-110.9979015,32.3821947],[-110.9985966,32.3816356],[-111.0039073,32.3785328],[-111.0071223,32.3779919],[-111.0094436,32.3735917]]},"properties":{"@id":"way/878718632","boat":"no","intermittent":"yes","name":"Cañada del Oro","waterway":"river","wikidata":"Q5055567","wikipedia":"en:Cañada del Oro"},"id":"way/878718632"},
{"type":"Feature","geometry":{"type":"LineString","coordinates":[[-109.3037188,31.3375377],[-109.2655869,31.3195425]]},"properties":{"@id":"way/879395280","intermittent":"yes","waterway":"river"},"id":"way/879395280"},
{"type":"Feature","geometry":{"type":"LineString","coordinates":[[-109.2508203,31.2903099],[-109.2563393,31.2843097]]},"properties":{"@id":"way/879395285","waterway":"river"},"id":"way/879395285"},
{"type":"Feature","geometry":{"type":"LineString","coordinates":[[-114.965668,32.3407847],[-114.9657494,32.3406307]]},"properties":{"@id":"way/890063280","intermittent":"yes","layer":"-1","name":"Colorado River","name:ar":"نهر كولورادو","name:arz":"نهر كولورادو","name:azb":"کولورادو چایی","name:be":"Каларада","name:de":"Colorado","name:el":"Κολωρᾶδος","name:es":"Río Colorado","name:gl":"Río Colorado","name:grc":"Κολωρᾶδος","name:hy":"Կոլորադո","name:kk":"Колорадо","name:ku":"Çemê Kolorado","name:lt":"Koloradas","name:pa":"ਕੋਲੋਰਾਡੋ ਦਰਿਆ","name:pt":"Rio Colorado","name:ru":"Колорадо","name:sr":"Колорадо","name:uk":"Колорадо","name:ur":"دریائے کولوراڈو","order:strahler":"9","source":"yahoo_imagery","tunnel":"culvert","waterway":"river"},"id":"way/890063280"},
{"type":"Feature","geometry":{"type":"LineString","coordinates":[[-114.9598813,32.3921134],[-114.965668,32.3407847]]},"properties":{"@id":"way/890063281","intermittent":"yes","name":"Colorado River","name:ar":"نهر كولورادو","name:arz":"نهر كولورادو","name:azb":"کولورادو چایی","name:be":"Каларада","name:de":"Colorado","name:el":"Κολωρᾶδος","name:es":"Río Colorado","name:gl":"Río Colorado","name:grc":"Κολωρᾶδος","name:hy":"Կոլորադո","name:kk":"Колорадо","name:ku":"Çemê Kolorado","name:lt":"Koloradas","name:pa":"ਕੋਲੋਰਾਡੋ ਦਰਿਆ","name:pt":"Rio Colorado","name:ru":"Колорадо","name:sr":"Колорадо","name:uk":"Колорадо","name:ur":"دریائے کولوراڈو","order:strahler":"9","source":"yahoo_imagery","waterway":"river"},"id":"way/890063281"},
{"type":"Feature","geometry":{"type":"LineString","coordinates":[[-110.9625968,31.9261663],[-110.9638385,31.9329363]]},"properties":{"@id":"way/890127394","boat":"no","intermittent":"yes","name":"Santa Cruz River","waterway":"river","wikipedia":"en:Santa Cruz River (Arizona)"},"id":"way/890127394"},
{"type":"Feature","geometry":{"type":"LineString","coordinates":[[-110.9625752,31.9260343],[-110.9625968,31.9261663]]},"properties":{"@id":"way/890127395","boat":"no","intermittent":"yes","layer":"-1","name":"Santa Cruz River","tunnel":"culvert","waterway":"river","wikipedia":"en:Santa Cruz River (Arizona)"},"id":"way/890127395"},
{"type":"Feature","geometry":{"type":"LineString","coordinates":[[-110.9638587,31.9330183],[-110.9726896,32.0711721],[-110.9874242,32.101937],[-110.9884813,32.1028188],[-110.9898538,32.1033691]]},"properties":{"@id":"way/890127396","boat":"no","intermittent":"yes","name":"Santa Cruz River","waterway":"river","wikipedia":"en:Santa Cruz River (Arizona)"},"id":"way/890127396"},
{"type":"Feature","geometry":{"type":"LineString","coordinates":[[-110.9638385,31.9329363],[-110.9638587,31.9330183]]},"properties":{"@id":"way/890127397","boat":"no","intermittent":"yes","layer":"-1","name":"Santa Cruz River","tunnel":"culvert","waterway":"river","wikipedia":"en:Santa Cruz River (Arizona)"},"id":"way/890127397"},
{"type":"Feature","geometry":{"type":"LineString","coordinates":[[-110.6025142,31.2842953],[-110.6026214,31.283791]]},"properties":{"@id":"way/891842414","intermittent":"yes","layer":"-1","name":"Rio Santa Cruz","name:en":"Santa Cruz River","seasonal":"no","tunnel":"culvert","waterway":"river"},"id":"way/891842414"},
{"type":"Feature","geometry":{"type":"LineString","coordinates":[[-110.5976353,31.332986],[-110.6025142,31.2842953]]},"properties":{"@id":"way/891842415","intermittent":"yes","name":"Rio Santa Cruz","name:en":"Santa Cruz River","seasonal":"no","waterway":"river"},"id":"way/891842415"},
{"type":"Feature","geometry":{"type":"LineString","coordinates":[[-110.5896503,31.3899383],[-110.5976353,31.332986]]},"properties":{"@id":"way/892172192","intermittent":"yes","name":"Santa Cruz River","seasonal":"no","waterway":"river"},"id":"way/892172192"},
{"type":"Feature","geometry":{"type":"LineString","coordinates":[[-110.5895323,31.3900219],[-110.5896503,31.3899383]]},"properties":{"@id":"way/892172193","intermittent":"yes","layer":"-1","name":"Santa Cruz River","seasonal":"no","tunnel":"culvert","waterway":"river"},"id":"way/892172193"},
{"type":"Feature","geometry":{"type":"LineString","coordinates":[[-110.8671132,32.4900287],[-110.8944742,32.4429303]]},"properties":{"@id":"way/913703613","boat":"no","intermittent":"yes","name":"Sutherland Wash","waterway":"river"},"id":"way/913703613"},
{"type":"Feature","geometry":{"type":"LineString","coordinates":[[-114.9269606,32.1409694],[-114.926964,32.1409661]]},"properties":{"@id":"way/924116155","source":"Bing","waterway":"river"},"id":"way/924116155"},
{"type":"Feature","geometry":{"type":"LineString","coordinates":[[-114.9268914,32.141039],[-114.9269606,32.1409694]]},"properties":{"@id":"way/924116156","layer":"-1","source":"Bing","tunnel":"culvert","waterway":"river"},"id":"way/924116156"},
{"type":"Feature","geometry":{"type":"LineString","coordinates":[[-110.9734374,31.4584713],[-110.9791151,31.4611605],[-111.0427066,31.5475521]]},"properties":{"@id":"way/926917259","boat":"no","intermittent":"no","name":"Santa Cruz River","waterway":"river","wikipedia":"en:Santa Cruz River (Arizona)"},"id":"way/926917259"},
{"type":"Feature","geometry":{"type":"LineString","coordinates":[[-111.0293652,32.2845178],[-111.0536032,32.3130315],[-111.0556326,32.3140007]]},"properties":{"@id":"way/926917261","boat":"no","intermittent":"no","name":"Santa Cruz River","waterway":"river","wikipedia":"en:Santa Cruz River (Arizona)"},"id":"way/926917261"},
{"type":"Feature","geometry":{"type":"LineString","coordinates":[[-111.0556326,32.3140007],[-111.0618588,32.3227818]]},"properties":{"@id":"way/926917262","boat":"no","fixme":"Survey needed to confirm river routing. Development in this area might have changed it.","intermittent":"no","name":"Santa Cruz River","waterway":"river","wikipedia":"en:Santa Cruz River (Arizona)"},"id":"way/926917262"},
{"type":"Feature","geometry":{"type":"LineString","coordinates":[[-111.1066304,32.3602012],[-111.1139635,32.3759476],[-111.1146313,32.3773351]]},"properties":{"@id":"way/926917263","boat":"no","intermittent":"no","name":"Santa Cruz River","waterway":"river","wikipedia":"en:Santa Cruz River (Arizona)"},"id":"way/926917263"},
{"type":"Feature","geometry":{"type":"LineString","coordinates":[[-111.0812971,32.3365591],[-111.1066304,32.3602012],[-111.1139635,32.3759476]]},"properties":{"@id":"way/926917264","boat":"no","intermittent":"no","name":"Santa Cruz River","waterway":"river","wikipedia":"en:Santa Cruz River (Arizona)"},"id":"way/926917264"},
{"type":"Feature","geometry":{"type":"LineString","coordinates":[[-111.1316694,32.3947217],[-111.1498122,32.4038003]]},"properties":{"@id":"way/926917265","boat":"no","intermittent":"no","name":"Santa Cruz River","waterway":"river","wikipedia":"en:Santa Cruz River (Arizona)"},"id":"way/926917265"},
{"type":"Feature","geometry":{"type":"LineString","coordinates":[[-111.1146313,32.3773351],[-111.128776,32.3926342],[-111.1316694,32.3947217]]},"properties":{"@id":"way/926962834","boat":"no","intermittent":"no","name":"Santa Cruz River","waterway":"river","wikipedia":"en:Santa Cruz River (Arizona)"},"id":"way/926962834"},
{"type":"Feature","geometry":{"type":"LineString","coordinates":[[-111.3421065,32.4995306],[-111.3467681,32.5001617]]},"properties":{"@id":"way/932235204","boat":"no","destination":"GIla River","intermittent":"yes","name":"Santa Cruz River","tiger:cfcc":"A41","tiger:reviewed":"no","waterway":"river","wikidata":"Q2343949","wikipedia":"en:Santa Cruz River (Arizona)"},"id":"way/932235204"},
{"type":"Feature","geometry":{"type":"LineString","coordinates":[[-110.2947678,32.1221342],[-110.300991,32.1566864]]},"properties":{"@id":"way/936182244","intermittent":"yes","name":"San Pedro River","waterway":"river"},"id":"way/936182244"},
{"type":"Feature","geometry":{"type":"LineString","coordinates":[[-111.3421065,32.4995306],[-111.3632792,32.5170176]]},"properties":{"@id":"way/936196949","intermittent":"no","name":"Santa Cruz River","waterway":"river"},"id":"way/936196949"},
{"type":"Feature","geometry":{"type":"LineString","coordinates":[[-111.3467681,32.5001617],[-111.3628373,32.5118177]]},"properties":{"@id":"way/936196950","boat":"no","destination":"Gila River","intermittent":"yes","name":"Santa Cruz River","waterway":"river","wikipedia":"en:Santa Cruz River (Arizona)"},"id":"way/936196950"},
{"type":"Feature","geometry":{"type":"LineString","coordinates":[[-111.0265046,33.1130978],[-111.0269712,33.1104562],[-111.0729693,33.1173092],[-111.146843,33.1117921],[-111.1477326,33.1118856],[-111.2468479,33.0995895]]},"properties":{"@id":"way/936531357","boat":"no","name":"Gila River","waterway":"river"},"id":"way/936531357"},
{"type":"Feature","geometry":{"type":"LineString","coordinates":[[-111.146843,33.1117921],[-111.1477326,33.1118856]]},"properties":{"@id":"way/936531366","boat":"no","name":"Gila River","waterway":"river"},"id":"way/936531366"},
{"type":"Feature","geometry":{"type":"LineString","coordinates":[[-111.7247742,33.5003437],[-111.7516508,33.4874571]]},"properties":{"@id":"way/936569863","boat":"no","gnis:feature_id":"33995","intermittent":"yes","name":"Salt River","source":"Yahoo,local_knowledge","waterway":"river","website":"https://geonames.usgs.gov/pls/gnispublic/f?p=gnispq:3:::NO::P3_FID:33995"},"id":"way/936569863"},
{"type":"Feature","geometry":{"type":"LineString","coordinates":[[-111.7516508,33.4874571],[-111.7519351,33.4871359]]},"properties":{"@id":"way/936569864","boat":"no","gnis:feature_id":"33995","intermittent":"yes","layer":"-1","name":"Salt River","source":"Yahoo,local_knowledge","tunnel":"culvert","waterway":"river","website":"https://geonames.usgs.gov/pls/gnispublic/f?p=gnispq:3:::NO::P3_FID:33995"},"id":"way/936569864"},
{"type":"Feature","geometry":{"type":"LineString","coordinates":[[-111.7519351,33.4871359],[-111.7862907,33.4852967]]},"properties":{"@id":"way/936569865","boat":"no","gnis:feature_id":"33995","intermittent":"yes","name":"Salt River","source":"Yahoo,local_knowledge","waterway":"river","website":"https://geonames.usgs.gov/pls/gnispublic/f?p=gnispq:3:::NO::P3_FID:33995"},"id":"way/936569865"},
{"type":"Feature","geometry":{"type":"LineString","coordinates":[[-111.7862907,33.4852967],[-111.7866535,33.4853526]]},"properties":{"@id":"way/936569866","boat":"no","gnis:feature_id":"33995","intermittent":"yes","layer":"-1","name":"Salt River","source":"Yahoo,local_knowledge","tunnel":"culvert","waterway":"river","website":"https://geonames.usgs.gov/pls/gnispublic/f?p=gnispq:3:::NO::P3_FID:33995"},"id":"way/936569866"},
{"type":"Feature","geometry":{"type":"LineString","coordinates":[[-111.9492877,33.4337416],[-111.9622365,33.4350228]]},"properties":{"@id":"way/936578418","boat":"no","name":"Salt River","waterway":"river"},"id":"way/936578418"},
{"type":"Feature","geometry":{"type":"LineString","coordinates":[[-111.9622365,33.4350228],[-111.9787012,33.4324885]]},"properties":{"@id":"way/936578419","boat":"no","gnis:feature_id":"33995","intermittent":"yes","name":"Salt River","source":"Yahoo,local_knowledge","waterway":"river","website":"https://geonames.usgs.gov/pls/gnispublic/f?p=gnispq:3:::NO::P3_FID:33995"},"id":"way/936578419"},
{"type":"Feature","geometry":{"type":"LineString","coordinates":[[-111.9787012,33.4324885],[-111.9787466,33.4324492]]},"properties":{"@id":"way/936578420","boat":"no","gnis:feature_id":"33995","intermittent":"yes","layer":"-1","name":"Salt River","source":"Yahoo,local_knowledge","tunnel":"culvert","waterway":"river","website":"https://geonames.usgs.gov/pls/gnispublic/f?p=gnispq:3:::NO::P3_FID:33995"},"id":"way/936578420"},
{"type":"Feature","geometry":{"type":"LineString","coordinates":[[-111.9787466,33.4324492],[-111.9956969,33.4263325]]},"properties":{"@id":"way/936578421","boat":"no","gnis:feature_id":"33995","intermittent":"yes","name":"Salt River","source":"Yahoo,local_knowledge","waterway":"river","website":"https://geonames.usgs.gov/pls/gnispublic/f?p=gnispq:3:::NO::P3_FID:33995"},"id":"way/936578421"},
{"type":"Feature","geometry":{"type":"LineString","coordinates":[[-111.9961241,33.4263039],[-112.0134832,33.4225697]]},"properties":{"@id":"way/936578422","boat":"no","gnis:feature_id":"33995","intermittent":"yes","name":"Salt River","source":"Yahoo,local_knowledge","waterway":"river","website":"https://geonames.usgs.gov/pls/gnispublic/f?p=gnispq:3:::NO::P3_FID:33995"},"id":"way/936578422"},
{"type":"Feature","geometry":{"type":"LineString","coordinates":[[-111.9956969,33.4263325],[-111.9961241,33.4263039]]},"properties":{"@id":"way/936578423","boat":"no","gnis:feature_id":"33995","intermittent":"yes","layer":"-1","name":"Salt River","source":"Yahoo,local_knowledge","tunnel":"culvert","waterway":"river","website":"https://geonames.usgs.gov/pls/gnispublic/f?p=gnispq:3:::NO::P3_FID:33995"},"id":"way/936578423"},
{"type":"Feature","geometry":{"type":"LineString","coordinates":[[-112.0134832,33.4225697],[-112.0315778,33.4165061]]},"properties":{"@id":"way/936578425","boat":"no","gnis:feature_id":"33995","name":"Salt River","source":"Yahoo,local_knowledge","waterway":"river","website":"https://geonames.usgs.gov/pls/gnispublic/f?p=gnispq:3:::NO::P3_FID:33995"},"id":"way/936578425"},
{"type":"Feature","geometry":{"type":"LineString","coordinates":[[-112.0315778,33.4165061],[-112.0401371,33.4170509]]},"properties":{"@id":"way/936578426","boat":"no","gnis:feature_id":"33995","intermittent":"yes","name":"Salt River","source":"Yahoo,local_knowledge","waterway":"river","website":"https://geonames.usgs.gov/pls/gnispublic/f?p=gnispq:3:::NO::P3_FID:33995"},"id":"way/936578426"},
{"type":"Feature","geometry":{"type":"LineString","coordinates":[[-112.0401371,33.4170509],[-112.0457355,33.4175623]]},"properties":{"@id":"way/936578427","boat":"no","gnis:feature_id":"33995","name":"Salt River","source":"Yahoo,local_knowledge","waterway":"river","website":"https://geonames.usgs.gov/pls/gnispublic/f?p=gnispq:3:::NO::P3_FID:33995"},"id":"way/936578427"},
{"type":"Feature","geometry":{"type":"LineString","coordinates":[[-112.0493925,33.4190112],[-112.0644476,33.4210795]]},"properties":{"@id":"way/936578428","boat":"no","gnis:feature_id":"33995","intermittent":"yes","name":"Salt River","source":"Yahoo,local_knowledge","waterway":"river","website":"https://geonames.usgs.gov/pls/gnispublic/f?p=gnispq:3:::NO::P3_FID:33995"},"id":"way/936578428"},
{"type":"Feature","geometry":{"type":"LineString","coordinates":[[-112.0644476,33.4210795],[-112.066198,33.4210154]]},"properties":{"@id":"way/936578429","boat":"no","gnis:feature_id":"33995","name":"Salt River","source":"Yahoo,local_knowledge","waterway":"river","website":"https://geonames.usgs.gov/pls/gnispublic/f?p=gnispq:3:::NO::P3_FID:33995"},"id":"way/936578429"},
{"type":"Feature","geometry":{"type":"LineString","coordinates":[[-112.0457355,33.4175623],[-112.0482082,33.4188048]]},"properties":{"@id":"way/936578430","boat":"no","gnis:feature_id":"33995","intermittent":"yes","name":"Salt River","source":"Yahoo,local_knowledge","waterway":"river","website":"https://geonames.usgs.gov/pls/gnispublic/f?p=gnispq:3:::NO::P3_FID:33995"},"id":"way/936578430"},
{"type":"Feature","geometry":{"type":"LineString","coordinates":[[-112.0482082,33.4188048],[-112.0493925,33.4190112]]},"properties":{"@id":"way/936578431","boat":"no","gnis:feature_id":"33995","name":"Salt River","source":"Yahoo,local_knowledge","waterway":"river","website":"https://geonames.usgs.gov/pls/gnispublic/f?p=gnispq:3:::NO::P3_FID:33995"},"id":"way/936578431"},
{"type":"Feature","geometry":{"type":"LineString","coordinates":[[-112.066198,33.4210154],[-112.0672708,33.4208332]]},"properties":{"@id":"way/936578433","boat":"no","gnis:feature_id":"33995","intermittent":"yes","name":"Salt River","source":"Yahoo,local_knowledge","waterway":"river","website":"https://geonames.usgs.gov/pls/gnispublic/f?p=gnispq:3:::NO::P3_FID:33995"},"id":"way/936578433"},
{"type":"Feature","geometry":{"type":"LineString","coordinates":[[-112.0672708,33.4208332],[-112.0939906,33.4118449]]},"properties":{"@id":"way/936578434","boat":"no","gnis:feature_id":"33995","name":"Salt River","source":"Yahoo,local_knowledge","waterway":"river","website":"https://geonames.usgs.gov/pls/gnispublic/f?p=gnispq:3:::NO::P3_FID:33995"},"id":"way/936578434"},
{"type":"Feature","geometry":{"type":"LineString","coordinates":[[-112.1591966,33.4068768],[-112.1617414,33.4080276]]},"properties":{"@id":"way/936996689","boat":"no","gnis:feature_id":"33995","intermittent":"yes","name":"Salt River","waterway":"river","website":"https://geonames.usgs.gov/pls/gnispublic/f?p=gnispq:3:::NO::P3_FID:33995"},"id":"way/936996689"},
{"type":"Feature","geometry":{"type":"LineString","coordinates":[[-112.2037188,33.3977577],[-112.2542127,33.3834402]]},"properties":{"@id":"way/936996691","boat":"no","gnis:feature_id":"33995","intermittent":"yes","name":"Salt River","source":"Yahoo,local_knowledge","waterway":"river","website":"https://geonames.usgs.gov/pls/gnispublic/f?p=gnispq:3:::NO::P3_FID:33995"},"id":"way/936996691"},
{"type":"Feature","geometry":{"type":"LineString","coordinates":[[-112.2035141,33.397783],[-112.2037188,33.3977577]]},"properties":{"@id":"way/936996692","boat":"no","gnis:feature_id":"33995","intermittent":"yes","layer":"-1","name":"Salt River","source":"Yahoo,local_knowledge","tunnel":"culvert","waterway":"river","website":"https://geonames.usgs.gov/pls/gnispublic/f?p=gnispq:3:::NO::P3_FID:33995"},"id":"way/936996692"},
{"type":"Feature","geometry":{"type":"LineString","coordinates":[[-112.2968199,33.3812717],[-112.2995015,33.3816535],[-112.303634,33.3819049]]},"properties":{"@id":"way/937468707","boat":"no","gnis:feature_id":"33995","name":"Salt River","source":"Yahoo,local_knowledge","waterway":"river","website":"https://geonames.usgs.gov/pls/gnispublic/f?p=gnispq:3:::NO::P3_FID:33995"},"id":"way/937468707"},
{"type":"Feature","geometry":{"type":"LineString","coordinates":[[-112.3439039,33.3810595],[-112.3527033,33.3826389],[-112.3609273,33.3850845]]},"properties":{"@id":"way/938077181","name":"Gila River","waterway":"river"},"id":"way/938077181"},
{"type":"Feature","geometry":{"type":"LineString","coordinates":[[-112.5284792,33.3523442],[-112.5393145,33.3492832],[-112.5403785,33.3481752]]},"properties":{"@id":"way/938077182","intermittent":"yes","name":"Gila River","surface":"dirt","waterway":"river"},"id":"way/938077182"},
{"type":"Feature","geometry":{"type":"LineString","coordinates":[[-112.5393145,33.3492832],[-112.5392322,33.3488991]]},"properties":{"@id":"way/938077183","intermittent":"yes","name":"Gila River","surface":"dirt","waterway":"river"},"id":"way/938077183"},
{"type":"Feature","geometry":{"type":"LineString","coordinates":[[-112.5311709,33.3504924],[-112.5392322,33.3488991],[-112.5403785,33.3481752],[-112.561842,33.3408292]]},"properties":{"@id":"way/938077184","intermittent":"yes","name":"Gila River","surface":"dirt","waterway":"river"},"id":"way/938077184"},
{"type":"Feature","geometry":{"type":"LineString","coordinates":[[-112.5311709,33.3504924],[-112.561842,33.3408292]]},"properties":{"@id":"way/938077186","intermittent":"yes","name":"Gila River","surface":"dirt","waterway":"river"},"id":"way/938077186"},
{"type":"Feature","geometry":{"type":"LineString","coordinates":[[-112.5862042,33.3393796],[-112.6077336,33.3356604]]},"properties":{"@id":"way/938077187","destination":"Colorado River","intermittent":"yes","name":"Gila River","surface":"dirt","waterway":"river"},"id":"way/938077187"},
{"type":"Feature","geometry":{"type":"LineString","coordinates":[[-110.9857366,32.236176],[-111.0293652,32.2845178]]},"properties":{"@id":"way/948306318","boat":"no","intermittent":"yes","name":"Santa Cruz River","waterway":"river","wikipedia":"en:Santa Cruz River (Arizona)"},"id":"way/948306318"},
{"type":"Feature","geometry":{"type":"LineString","coordinates":[[-110.9894484,32.2031727],[-110.9819205,32.2201036]]},"properties":{"@id":"way/948306321","boat":"no","intermittent":"yes","name":"Santa Cruz River","waterway":"river","wikipedia":"en:Santa Cruz River (Arizona)"},"id":"way/948306321"},
{"type":"Feature","geometry":{"type":"LineString","coordinates":[[-110.9819205,32.2201036],[-110.9857366,32.236176]]},"properties":{"@id":"way/948306323","boat":"no","intermittent":"yes","name":"Santa Cruz River","waterway":"river","wikipedia":"en:Santa Cruz River (Arizona)"},"id":"way/948306323"},
{"type":"Feature","geometry":{"type":"LineString","coordinates":[[-110.869657,31.4923682],[-110.8706641,31.492368]]},"properties":{"@id":"way/950215380","intermittent":"no","layer":"-1","name":"Sonoita Creek","tunnel":"culvert","waterway":"river"},"id":"way/950215380"},
{"type":"Feature","geometry":{"type":"LineString","coordinates":[[-110.9271281,31.3525465],[-110.9271602,31.3526795]]},"properties":{"@id":"way/999276372","intermittent":"no","layer":"-1","name":"Nogales Wash","tunnel":"culvert","waterway":"river"},"id":"way/999276372"},
{"type":"Feature","geometry":{"type":"LineString","coordinates":[[-111.6543054,33.0802015],[-111.8325376,33.1376414]]},"properties":{"@id":"way/1000094748","boat":"no","intermittent":"yes","name":"Gila River","surface":"dirt","waterway":"river"},"id":"way/1000094748"},
{"type":"Feature","geometry":{"type":"LineString","coordinates":[[-108.3194554,33.3043088],[-108.2435717,33.2221724]]},"properties":{"@id":"way/1002706176","boat":"no","name":"Middle Fork Gila River","waterway":"river"},"id":"way/1002706176"},
{"type":"Feature","geometry":{"type":"LineString","coordinates":[[-110.9931967,32.1040855],[-110.9926349,32.1221237],[-110.9907532,32.1674618],[-110.9900492,32.1689571]]},"properties":{"@id":"way/1004812226","boat":"no","intermittent":"yes","name":"Santa Cruz River","waterway":"river","wikipedia":"en:Santa Cruz River (Arizona)"},"id":"way/1004812226"},
{"type":"Feature","geometry":{"type":"LineString","coordinates":[[-110.9898538,32.1033691],[-110.9931967,32.1040855]]},"properties":{"@id":"way/1004994385","boat":"no","intermittent":"no","name":"Santa Cruz River","waterway":"river","wikipedia":"en:Santa Cruz River (Arizona)"},"id":"way/1004994385"},
{"type":"Feature","geometry":{"type":"LineString","coordinates":[[-111.3632792,32.5170176],[-111.3746269,32.5303676]]},"properties":{"@id":"way/1020171394","boat":"no","destination":"Gila River","gnis:feature_id":"34066","intermittent":"no","name":"Santa Cruz River","tiger:cfcc":"A41","tiger:county":"Pinal, AZ","tiger:reviewed":"no","waterway":"river","wikidata":"Q2343949","wikipedia":"en:Santa Cruz River (Arizona)"},"id":"way/1020171394"},
{"type":"Feature","geometry":{"type":"LineString","coordinates":[[-111.4029935,32.5426284],[-111.4673388,32.5774701]]},"properties":{"@id":"way/1020171396","boat":"no","intermittent":"no","not:name":"Santa Cruz River","waterway":"river"},"id":"way/1020171396"},
{"type":"Feature","geometry":{"type":"LineString","coordinates":[[-111.630067,32.5997225],[-111.6606456,32.600154]]},"properties":{"@id":"way/1020171397","gnis:feature_id":"5367","intermittent":"yes","name":"Greene Canal","note":"This canal was mistagged as the Santa Cruz River.","source":"National Hydrography Dataset","waterway":"river"},"id":"way/1020171397"},
{"type":"Feature","geometry":{"type":"LineString","coordinates":[[-114.7289444,32.7054083],[-114.7630243,32.649749]]},"properties":{"@id":"way/1023800221","admin_level":"2","boundary":"administrative","intermittent":"yes","name":"Colorado River","name:ar":"نهر كولورادو","name:arz":"نهر كولورادو","name:azb":"کولورادو چایی","name:be":"Каларада","name:de":"Colorado","name:el":"Κολωρᾶδος","name:es":"Río Colorado","name:gl":"Río Colorado","name:grc":"Κολωρᾶδος","name:hy":"Կոլորադո","name:kk":"Колорадо","name:ku":"Çemê Kolorado","name:lt":"Koloradas","name:pa":"ਕੋਲੋਰਾਡੋ ਦਰਿਆ","name:pt":"Rio Colorado","name:ru":"Колорадо","name:sr":"Колорадо","name:uk":"Колорадо","name:ur":"دریائے کولوراڈو","order:strahler":"9","source":"Yahoo;bing","waterway":"river"},"id":"way/1023800221"},
{"type":"Feature","geometry":{"type":"LineString","coordinates":[[-114.8129517,32.557377],[-114.8094857,32.51079]]},"properties":{"@id":"way/1023800222","admin_level":"2","boundary":"administrative","intermittent":"yes","name":"Colorado River","name:ar":"نهر كولورادو","name:arz":"نهر كولورادو","name:azb":"کولورادو چایی","name:be":"Каларада","name:de":"Colorado","name:el":"Κολωρᾶδος","name:es":"Río Colorado","name:gl":"Río Colorado","name:grc":"Κολωρᾶδος","name:hy":"Կոլորադո","name:kk":"Колорадо","name:ku":"Çemê Kolorado","name:lt":"Koloradas","name:pa":"ਕੋਲੋਰਾਡੋ ਦਰਿਆ","name:pt":"Rio Colorado","name:ru":"Колорадо","name:sr":"Колорадо","name:uk":"Колорадо","name:ur":"دریائے کولوراڈو","order:strahler":"9","source":"Yahoo;bing","waterway":"river"},"id":"way/1023800222"},
{"type":"Feature","geometry":{"type":"LineString","coordinates":[[-114.6157487,32.7287213],[-114.6918455,32.7398594]]},"properties":{"@id":"way/1023800235","name":"Colorado River","name:ar":"نهر كولورادو","name:arz":"نهر كولورادو","name:azb":"کولورادو چایی","name:be":"Каларада","name:de":"Colorado","name:el":"Κολωρᾶδος","name:es":"Río Colorado","name:gl":"Río Colorado","name:grc":"Κολωρᾶδος","name:hy":"Կոլորադո","name:kk":"Колорадо","name:ku":"Çemê Kolorado","name:lt":"Koloradas","name:pa":"ਕੋਲੋਰਾਡੋ ਦਰਿਆ","name:pt":"Rio Colorado","name:ru":"Колорадо","name:sr":"Колорадо","name:uk":"Колорадо","name:ur":"دریائے کولوراڈو","order:strahler":"9","waterway":"river"},"id":"way/1023800235"},
{"type":"Feature","geometry":{"type":"LineString","coordinates":[[-114.6142688,32.7287893],[-114.6157487,32.7287213]]},"properties":{"@id":"way/1023800237","name":"Colorado River","name:ar":"نهر كولورادو","name:arz":"نهر كولورادو","name:azb":"کولورادو چایی","name:be":"Каларада","name:de":"Colorado","name:el":"Κολωρᾶδος","name:es":"Río Colorado","name:gl":"Río Colorado","name:grc":"Κολωρᾶδος","name:hy":"Կոլորադո","name:kk":"Колорадо","name:ku":"Çemê Kolorado","name:lt":"Koloradas","name:pa":"ਕੋਲੋਰਾਡੋ ਦਰਿਆ","name:pt":"Rio Colorado","name:ru":"Колорадо","name:sr":"Колорадо","name:uk":"Колорадо","name:ur":"دریائے کولوراڈو","order:strahler":"9","waterway":"river"},"id":"way/1023800237"},
{"type":"Feature","geometry":{"type":"LineString","coordinates":[[-114.6918455,32.7398594],[-114.713821,32.7311181],[-114.7199073,32.7187133]]},"properties":{"@id":"way/1023800241","name":"Colorado River","name:ar":"نهر كولورادو","name:arz":"نهر كولورادو","name:azb":"کولورادو چایی","name:be":"Каларада","name:de":"Colorado","name:el":"Κολωρᾶδος","name:es":"Río Colorado","name:gl":"Río Colorado","name:grc":"Κολωρᾶδος","name:hy":"Կոլորադո","name:kk":"Колорадо","name:ku":"Çemê Kolorado","name:lt":"Koloradas","name:pa":"ਕੋਲੋਰਾਡੋ ਦਰਿਆ","name:pt":"Rio Colorado","name:ru":"Колорадо","name:sr":"Колорадо","name:uk":"Колорадо","name:ur":"دریائے کولوراڈو","order:strahler":"9","waterway":"river","wikidata":"Q1265","wikipedia":"es:Río Colorado"},"id":"way/1023800241"},
{"type":"Feature","geometry":{"type":"LineString","coordinates":[[-110.7172778,32.843344],[-110.72532,32.8896371]]},"properties":{"@id":"way/1031064581","intermittent":"yes","name":"San Pedro River","waterway":"river"},"id":"way/1031064581"},
{"type":"Feature","geometry":{"type":"LineString","coordinates":[[-110.65791,32.7551628],[-110.6976268,32.8126439]]},"properties":{"@id":"way/1031064584","intermittent":"yes","name":"San Pedro River","waterway":"river"},"id":"way/1031064584"},
{"type":"Feature","geometry":{"type":"LineString","coordinates":[[-109.0072259,31.9257286],[-109.007281,31.9259727]]},"properties":{"@id":"way/1034006506","intermittent":"yes","layer":"-1","tunnel":"culvert","waterway":"river"},"id":"way/1034006506"},
{"type":"Feature","geometry":{"type":"LineString","coordinates":[[-110.8706641,31.492368],[-110.8843352,31.4809448]]},"properties":{"@id":"way/1035252505","intermittent":"no","name":"Sonoita Creek","waterway":"river"},"id":"way/1035252505"},
{"type":"Feature","geometry":{"type":"LineString","coordinates":[[-110.7511551,32.3474595],[-110.751715,32.347559]]},"properties":{"@id":"way/1040059914","intermittent":"yes","name":"Bear Creek","waterway":"river"},"id":"way/1040059914"},
{"type":"Feature","geometry":{"type":"LineString","coordinates":[[-110.72532,32.8896371],[-110.730429,32.903967]]},"properties":{"@id":"way/1042007571","intermittent":"yes","name":"San Pedro River","waterway":"river"},"id":"way/1042007571"},
{"type":"Feature","geometry":{"type":"LineString","coordinates":[[-110.7538644,32.9486198],[-110.7684678,32.9737696]]},"properties":{"@id":"way/1042007572","intermittent":"yes","name":"San Pedro River","waterway":"river"},"id":"way/1042007572"},
{"type":"Feature","geometry":{"type":"LineString","coordinates":[[-110.300991,32.1566864],[-110.3163348,32.2059442]]},"properties":{"@id":"way/1044075294","intermittent":"no","name":"San Pedro River","waterway":"river"},"id":"way/1044075294"},
{"type":"Feature","geometry":{"type":"LineString","coordinates":[[-110.3163348,32.2059442],[-110.3750266,32.2856204]]},"properties":{"@id":"way/1044075295","intermittent":"yes","name":"San Pedro River","waterway":"river"},"id":"way/1044075295"},
{"type":"Feature","geometry":{"type":"LineString","coordinates":[[-110.3750266,32.2856204],[-110.3791498,32.2846789]]},"properties":{"@id":"way/1044075296","intermittent":"no","name":"San Pedro River","waterway":"river"},"id":"way/1044075296"},
{"type":"Feature","geometry":{"type":"LineString","coordinates":[[-110.4179248,32.3386362],[-110.4395454,32.3785425]]},"properties":{"@id":"way/1044075297","intermittent":"no","name":"San Pedro River","waterway":"river"},"id":"way/1044075297"},
{"type":"Feature","geometry":{"type":"LineString","coordinates":[[-110.9635198,31.4435405],[-110.9610346,31.4505652]]},"properties":{"@id":"way/1044125918","intermittent":"yes","waterway":"river"},"id":"way/1044125918"},
{"type":"Feature","geometry":{"type":"LineString","coordinates":[[-110.9535198,31.4022458],[-110.9592051,31.4234768]]},"properties":{"@id":"way/1044125919","intermittent":"no","name":"Potrero Creek","waterway":"river"},"id":"way/1044125919"},
{"type":"Feature","geometry":{"type":"LineString","coordinates":[[-110.9365151,31.2965151],[-110.9364372,31.2971877]]},"properties":{"@id":"way/1044125920","intermittent":"no","name":"Arroyo Los Nogales","waterway":"river"},"id":"way/1044125920"},
{"type":"Feature","geometry":{"type":"LineString","coordinates":[[-110.9424844,31.3327447],[-110.933185,31.3418309]]},"properties":{"@id":"way/1044125922","intermittent":"no","layer":"-1","name":"Nogales Wash","tunnel":"culvert","waterway":"river"},"id":"way/1044125922"},
{"type":"Feature","geometry":{"type":"LineString","coordinates":[[-110.9404632,31.3792836],[-110.9535198,31.4022458]]},"properties":{"@id":"way/1044125925","intermittent":"no","name":"Nogales Wash","waterway":"river"},"id":"way/1044125925"},
{"type":"Feature","geometry":{"type":"LineString","coordinates":[[-110.9403896,31.3792298],[-110.9404632,31.3792836]]},"properties":{"@id":"way/1044125926","intermittent":"no","layer":"-1","name":"Nogales Wash","tunnel":"culvert","waterway":"river"},"id":"way/1044125926"},
{"type":"Feature","geometry":{"type":"LineString","coordinates":[[-110.2052083,31.7731961],[-110.2171719,31.7815766]]},"properties":{"@id":"way/1050443493","intermittent":"no","name":"San Pedro River","waterway":"river"},"id":"way/1050443493"},
{"type":"Feature","geometry":{"type":"LineString","coordinates":[[-110.172195,31.6238231],[-110.1940711,31.7226943],[-110.1952039,31.7386166]]},"properties":{"@id":"way/1050443494","intermittent":"no","name":"San Pedro River","waterway":"river"},"id":"way/1050443494"},
{"type":"Feature","geometry":{"type":"LineString","coordinates":[[-109.1484082,32.2529279],[-109.2284292,32.3084718]]},"properties":{"@id":"way/1051661994","intermittent":"yes","waterway":"river"},"id":"way/1051661994"},
{"type":"Feature","geometry":{"type":"LineString","coordinates":[[-109.4119297,32.4952711],[-109.4120917,32.4952968]]},"properties":{"@id":"way/1053571624","intermittent":"yes","tunnel":"culvert","waterway":"river"},"id":"way/1053571624"},
{"type":"Feature","geometry":{"type":"LineString","coordinates":[[-109.3712944,32.4592347],[-109.4119297,32.4952711]]},"properties":{"@id":"way/1053571625","intermittent":"yes","waterway":"river"},"id":"way/1053571625"},
{"type":"Feature","geometry":{"type":"LineString","coordinates":[[-110.7482225,32.1485714],[-110.7560005,32.1569244]]},"properties":{"@id":"way/1053987473","intermittent":"yes","name":"Pantano Wash","waterway":"river"},"id":"way/1053987473"},
{"type":"Feature","geometry":{"type":"LineString","coordinates":[[-110.7560005,32.1569244],[-110.7584757,32.1595739]]},"properties":{"@id":"way/1053987474","addr:city":"Tucson","addr:postcode":"85710","addr:state":"AZ","highway":"path","intermittent":"yes","name":"Pantano Wash","waterway":"river"},"id":"way/1053987474"},
{"type":"Feature","geometry":{"type":"LineString","coordinates":[[-110.1161014,33.1456857],[-110.1234837,33.1569621],[-110.1238581,33.1572502]]},"properties":{"@id":"way/1054324187","boat":"no","name":"Gila River","waterway":"river"},"id":"way/1054324187"},
{"type":"Feature","geometry":{"type":"LineString","coordinates":[[-110.135445,33.166048],[-110.1358125,33.1663421]]},"properties":{"@id":"way/1054324188","boat":"no","name":"Gila River","waterway":"river"},"id":"way/1054324188"},
{"type":"Feature","geometry":{"type":"LineString","coordinates":[[-111.671243,32.6088837],[-111.6719766,32.6095717]]},"properties":{"@id":"way/1087754190","gnis:feature_id":"5367","intermittent":"yes","name":"Greene Canal","note":"This canal was mistagged as the Santa Cruz River.","source":"National Hydrography Dataset","waterway":"river"},"id":"way/1087754190"},
{"type":"Feature","geometry":{"type":"LineString","coordinates":[[-111.6606456,32.600154],[-111.671243,32.6088837]]},"properties":{"@id":"way/1087754191","intermittent":"yes","waterway":"river"},"id":"way/1087754191"},
{"type":"Feature","geometry":{"type":"LineString","coordinates":[[-111.6089755,32.5967871],[-111.6156449,32.5978616]]},"properties":{"@id":"way/1087754200","gnis:feature_id":"5367","intermittent":"yes","name":"Greene Canal","note":"This canal was mistagged as the Santa Cruz River.","source":"National Hydrography Dataset","waterway":"river"},"id":"way/1087754200"},
{"type":"Feature","geometry":{"type":"LineString","coordinates":[[-111.5641719,32.5896461],[-111.6089755,32.5967871]]},"properties":{"@id":"way/1087754201","gnis:feature_id":"5367","name":"Greene Canal","note":"This canal was mistagged as the Santa Cruz River.","source":"National Hydrography Dataset","waterway":"river"},"id":"way/1087754201"},
{"type":"Feature","geometry":{"type":"LineString","coordinates":[[-111.3399647,32.4980307],[-111.3421065,32.4995306]]},"properties":{"@id":"way/1087754203","boat":"no","destination":"GIla River","intermittent":"no","name":"Santa Cruz River","tiger:cfcc":"A41","tiger:reviewed":"no","waterway":"river","wikidata":"Q2343949","wikipedia":"en:Santa Cruz River (Arizona)"},"id":"way/1087754203"},
{"type":"Feature","geometry":{"type":"LineString","coordinates":[[-111.3628373,32.5118177],[-111.3632792,32.5170176]]},"properties":{"@id":"way/1087754204","boat":"no","destination":"Gila River","gnis:feature_id":"34066","intermittent":"yes","name":"Santa Cruz River","note":"The NHD shows the Santa Cruz River being divided into two parts in this area.","tiger:cfcc":"A41","tiger:county":"Pinal, AZ","tiger:reviewed":"no","waterway":"river","wikidata":"Q2343949","wikipedia":"en:Santa Cruz River (Arizona)"},"id":"way/1087754204"},
{"type":"Feature","geometry":{"type":"LineString","coordinates":[[-110.962617,32.3992036],[-110.9677504,32.3976265]]},"properties":{"@id":"way/1088062419","boat":"no","intermittent":"yes","name":"Cañada del Oro","waterway":"river","wikidata":"Q5055567","wikipedia":"en:Cañada del Oro"},"id":"way/1088062419"},
{"type":"Feature","geometry":{"type":"LineString","coordinates":[[-110.7709419,32.3276437],[-110.7707594,32.3271339]]},"properties":{"@id":"way/1089786029","intermittent":"yes","name":"Bear Creek","waterway":"river"},"id":"way/1089786029"},
{"type":"Feature","geometry":{"type":"LineString","coordinates":[[-110.8105289,32.3114233],[-110.8105143,32.3113807]]},"properties":{"@id":"way/1091139312","boat":"no","intermittent":"yes","layer":"-1","name":"Sabino Creek","tunnel":"culvert","waterway":"river"},"id":"way/1091139312"},
{"type":"Feature","geometry":{"type":"LineString","coordinates":[[-110.8115164,32.3133813],[-110.8114832,32.3133388]]},"properties":{"@id":"way/1091139313","boat":"no","intermittent":"yes","layer":"-1","name":"Sabino Creek","tunnel":"culvert","waterway":"river"},"id":"way/1091139313"},
{"type":"Feature","geometry":{"type":"LineString","coordinates":[[-110.8104372,32.3082762],[-110.8099199,32.3063724]]},"properties":{"@id":"way/1091139314","boat":"no","intermittent":"yes","name":"Sabino Creek","waterway":"river"},"id":"way/1091139314"},
{"type":"Feature","geometry":{"type":"LineString","coordinates":[[-110.8090551,32.3230246],[-110.809895,32.3212345]]},"properties":{"@id":"way/1091139318","boat":"no","intermittent":"yes","name":"Sabino Creek","waterway":"river"},"id":"way/1091139318"},
{"type":"Feature","geometry":{"type":"LineString","coordinates":[[-110.8057204,32.3250173],[-110.8057076,32.3249859]]},"properties":{"@id":"way/1091139320","boat":"no","intermittent":"yes","layer":"-1","name":"Sabino Creek","tunnel":"culvert","waterway":"river"},"id":"way/1091139320"},
{"type":"Feature","geometry":{"type":"LineString","coordinates":[[-110.8044953,32.3258405],[-110.8045271,32.3258586]]},"properties":{"@id":"way/1091139322","boat":"no","intermittent":"yes","layer":"-1","name":"Sabino Creek","tunnel":"culvert","waterway":"river"},"id":"way/1091139322"},
{"type":"Feature","geometry":{"type":"LineString","coordinates":[[-110.8032026,32.3262002],[-110.8032255,32.3261671]]},"properties":{"@id":"way/1091139324","boat":"no","intermittent":"yes","layer":"-1","name":"Sabino Creek","tunnel":"culvert","waterway":"river"},"id":"way/1091139324"},
{"type":"Feature","geometry":{"type":"LineString","coordinates":[[-110.7984129,32.3291096],[-110.7984622,32.3290884]]},"properties":{"@id":"way/1091139328","boat":"no","intermittent":"yes","layer":"-1","name":"Sabino Creek","tunnel":"culvert","waterway":"river"},"id":"way/1091139328"},
{"type":"Feature","geometry":{"type":"LineString","coordinates":[[-110.9900492,32.1689571],[-110.9889252,32.1955235]]},"properties":{"@id":"way/1106214297","boat":"no","intermittent":"no","name":"Santa Cruz River","waterway":"river","wikipedia":"en:Santa Cruz River (Arizona)"},"id":"way/1106214297"},
{"type":"Feature","geometry":{"type":"LineString","coordinates":[[-110.9889252,32.1955235],[-110.9894484,32.2031727]]},"properties":{"@id":"way/1106214298","boat":"no","intermittent":"yes","name":"Santa Cruz River","waterway":"river","wikipedia":"en:Santa Cruz River (Arizona)"},"id":"way/1106214298"},
{"type":"Feature","geometry":{"type":"LineString","coordinates":[[-110.5561683,32.6254741],[-110.5776188,32.6379759]]},"properties":{"@id":"way/1110824998","intermittent":"yes","name":"San Pedro River","waterway":"river"},"id":"way/1110824998"},
{"type":"Feature","geometry":{"type":"LineString","coordinates":[[-110.5435404,32.6121925],[-110.5432266,32.6138802]]},"properties":{"@id":"way/1110824999","intermittent":"yes","name":"San Pedro River","waterway":"river"},"id":"way/1110824999"},
{"type":"Feature","geometry":{"type":"LineString","coordinates":[[-110.5430281,32.6078093],[-110.5435404,32.6121925]]},"properties":{"@id":"way/1110825000","intermittent":"no","name":"San Pedro River","waterway":"river"},"id":"way/1110825000"},
{"type":"Feature","geometry":{"type":"LineString","coordinates":[[-110.5432266,32.6138802],[-110.5561683,32.6254741]]},"properties":{"@id":"way/1110825001","intermittent":"no","name":"San Pedro River","waterway":"river"},"id":"way/1110825001"},
{"type":"Feature","geometry":{"type":"LineString","coordinates":[[-108.9078015,33.4563127],[-108.9250894,33.4524168]]},"properties":{"@id":"way/1118785699","intermittent":"yes","name":"San Francisco River","waterway":"river"},"id":"way/1118785699"},
{"type":"Feature","geometry":{"type":"LineString","coordinates":[[-108.9250894,33.4524168],[-108.9305876,33.4497274],[-108.9300141,33.4485578]]},"properties":{"@id":"way/1118785700","intermittent":"yes","name":"San Francisco River","waterway":"river"},"id":"way/1118785700"},
{"type":"Feature","geometry":{"type":"LineString","coordinates":[[-111.7020485,32.8928481],[-111.7017958,32.8928897]]},"properties":{"@id":"way/1124313135","intermittent":"no","tidal":"no","waterway":"river","width":"4"},"id":"way/1124313135"},
{"type":"Feature","geometry":{"type":"LineString","coordinates":[[-111.7017958,32.8928897],[-111.7010551,32.892714]]},"properties":{"@id":"way/1124313136","intermittent":"no","layer":"-1","tidal":"no","tunnel":"culvert","waterway":"river","width":"4"},"id":"way/1124313136"},
{"type":"Feature","geometry":{"type":"LineString","coordinates":[[-111.7010551,32.892714],[-111.70037,32.8921216]]},"properties":{"@id":"way/1124313137","intermittent":"no","tidal":"no","waterway":"river","width":"4"},"id":"way/1124313137"},
{"type":"Feature","geometry":{"type":"LineString","coordinates":[[-111.70037,32.8921216],[-111.7003035,32.8919526]]},"properties":{"@id":"way/1124313138","intermittent":"no","layer":"-1","tidal":"no","tunnel":"culvert","waterway":"river","width":"4"},"id":"way/1124313138"},
{"type":"Feature","geometry":{"type":"LineString","coordinates":[[-111.7003035,32.8919526],[-111.7001539,32.8914688]]},"properties":{"@id":"way/1124313139","intermittent":"no","tidal":"no","waterway":"river","width":"4"},"id":"way/1124313139"},
{"type":"Feature","geometry":{"type":"LineString","coordinates":[[-111.7001539,32.8914688],[-111.7000819,32.8913184]]},"properties":{"@id":"way/1124313140","intermittent":"no","layer":"-1","tidal":"no","tunnel":"culvert","waterway":"river","width":"4"},"id":"way/1124313140"},
{"type":"Feature","geometry":{"type":"LineString","coordinates":[[-111.7000819,32.8913184],[-111.7002887,32.8891599]]},"properties":{"@id":"way/1124313141","intermittent":"no","tidal":"no","waterway":"river","width":"4"},"id":"way/1124313141"},
{"type":"Feature","geometry":{"type":"LineString","coordinates":[[-111.7002887,32.8891599],[-111.7003238,32.888994]]},"properties":{"@id":"way/1124313142","intermittent":"no","layer":"-1","tidal":"no","tunnel":"culvert","waterway":"river","width":"4"},"id":"way/1124313142"},
{"type":"Feature","geometry":{"type":"LineString","coordinates":[[-111.7003238,32.888994],[-111.7003885,32.8879457]]},"properties":{"@id":"way/1124313143","intermittent":"no","tidal":"no","waterway":"river","width":"4"},"id":"way/1124313143"},
{"type":"Feature","geometry":{"type":"LineString","coordinates":[[-111.7019988,32.8923776],[-111.7018924,32.8921039]]},"properties":{"@id":"way/1124313145","intermittent":"no","tidal":"no","waterway":"river","width":"4"},"id":"way/1124313145"},
{"type":"Feature","geometry":{"type":"LineString","coordinates":[[-111.7018924,32.8921039],[-111.7017561,32.8919321]]},"properties":{"@id":"way/1124313146","intermittent":"no","layer":"-1","tidal":"no","tunnel":"culvert","waterway":"river","width":"4"},"id":"way/1124313146"},
{"type":"Feature","geometry":{"type":"LineString","coordinates":[[-111.7017561,32.8919321],[-111.7019704,32.8892421]]},"properties":{"@id":"way/1124313147","intermittent":"no","tidal":"no","waterway":"river","width":"4"},"id":"way/1124313147"},
{"type":"Feature","geometry":{"type":"LineString","coordinates":[[-111.7019704,32.8892421],[-111.7019357,32.8891121]]},"properties":{"@id":"way/1124313148","intermittent":"no","layer":"-1","tidal":"no","tunnel":"culvert","waterway":"river","width":"4"},"id":"way/1124313148"},
{"type":"Feature","geometry":{"type":"LineString","coordinates":[[-111.7019357,32.8891121],[-111.7012539,32.8873254]]},"properties":{"@id":"way/1124313149","intermittent":"no","tidal":"no","waterway":"river","width":"4"},"id":"way/1124313149"},
{"type":"Feature","geometry":{"type":"LineString","coordinates":[[-111.7023574,32.8859303],[-111.702578,32.8850186]]},"properties":{"@id":"way/1124313152","intermittent":"no","tidal":"no","waterway":"river","width":"4"},"id":"way/1124313152"},
{"type":"Feature","geometry":{"type":"LineString","coordinates":[[-111.702578,32.8850186],[-111.7023631,32.8848481]]},"properties":{"@id":"way/1124313153","intermittent":"no","layer":"-1","tidal":"no","tunnel":"culvert","waterway":"river","width":"4"},"id":"way/1124313153"},
{"type":"Feature","geometry":{"type":"LineString","coordinates":[[-111.7023631,32.8848481],[-111.7023687,32.8846712]]},"properties":{"@id":"way/1124313154","intermittent":"no","tidal":"no","waterway":"river","width":"4"},"id":"way/1124313154"},
{"type":"Feature","geometry":{"type":"LineString","coordinates":[[-111.7023687,32.8846712],[-111.7026131,32.8843917]]},"properties":{"@id":"way/1124313155","intermittent":"no","layer":"-1","tidal":"no","tunnel":"culvert","waterway":"river","width":"4"},"id":"way/1124313155"},
{"type":"Feature","geometry":{"type":"LineString","coordinates":[[-111.0405362,31.6160644],[-111.0411299,31.6251996]]},"properties":{"@id":"way/1154400065","boat":"no","intermittent":"no","name":"Santa Cruz River","waterway":"river","wikipedia":"en:Santa Cruz River (Arizona)"},"id":"way/1154400065"},
{"type":"Feature","geometry":{"type":"LineString","coordinates":[[-111.0427066,31.5475521],[-111.0405362,31.6160644],[-111.0411299,31.6251996],[-111.0417442,31.6297936]]},"properties":{"@id":"way/1154579882","boat":"no","intermittent":"no","name":"Santa Cruz River","waterway":"river","wikipedia":"en:Santa Cruz River (Arizona)"},"id":"way/1154579882"},
{"type":"Feature","geometry":{"type":"LineString","coordinates":[[-108.9932635,32.6761634],[-109.1503178,32.7601374]]},"properties":{"@id":"way/1156109746","boat":"no","description":"Gila River between Duncan, AZ and Virden, NM","name":"Gila River","waterway":"river"},"id":"way/1156109746"},
{"type":"Feature","geometry":{"type":"LineString","coordinates":[[-109.1503178,32.7601374],[-109.1718917,32.7772169]]},"properties":{"@id":"way/1156109747","boat":"no","name":"Gila River","waterway":"river"},"id":"way/1156109747"},
{"type":"Feature","geometry":{"type":"LineString","coordinates":[[-110.9961961,32.3841219],[-110.9979015,32.3821947]]},"properties":{"@id":"way/1160621810","boat":"no","intermittent":"yes","name":"Cañada del Oro","waterway":"river","wikidata":"Q5055567","wikipedia":"en:Cañada del Oro"},"id":"way/1160621810"},
{"type":"Feature","geometry":{"type":"LineString","coordinates":[[-110.7663381,32.985214],[-110.767375,32.9850773]]},"properties":{"@id":"way/1160978760","boat":"no","name":"Gila River","waterway":"river"},"id":"way/1160978760"},
{"type":"Feature","geometry":{"type":"LineString","coordinates":[[-110.7664449,32.9850939],[-110.767375,32.9850773],[-110.7694305,32.9846559]]},"properties":{"@id":"way/1160978761","boat":"no","name":"Gila River","waterway":"river"},"id":"way/1160978761"},
{"type":"Feature","geometry":{"type":"LineString","coordinates":[[-110.7642326,32.9882648],[-110.7647055,32.9873409]]},"properties":{"@id":"way/1160978762","boat":"no","name":"Gila River","waterway":"river"},"id":"way/1160978762"},
{"type":"Feature","geometry":{"type":"LineString","coordinates":[[-111.2049222,32.4222196],[-111.2253671,32.4299273]]},"properties":{"@id":"way/1161007130","boat":"no","intermittent":"yes","name":"Santa Cruz River","waterway":"river","wikidata":"Q2343949","wikipedia":"en:Santa Cruz River (Arizona)"},"id":"way/1161007130"},
{"type":"Feature","geometry":{"type":"LineString","coordinates":[[-108.6183003,33.3075632],[-108.3996132,33.2763638]]},"properties":{"@id":"way/1171635316","boat":"no","name":"West Fork Gila River","waterway":"river"},"id":"way/1171635316"},
{"type":"Feature","geometry":{"type":"LineString","coordinates":[[-111.0663754,32.3265693],[-111.0812971,32.3365591]]},"properties":{"@id":"way/1180267343","boat":"no","intermittent":"yes","name":"Santa Cruz River","waterway":"river","wikipedia":"en:Santa Cruz River (Arizona)"},"id":"way/1180267343"},
{"type":"Feature","geometry":{"type":"LineString","coordinates":[[-111.0618588,32.3227818],[-111.0646252,32.3255472],[-111.0663754,32.3265693]]},"properties":{"@id":"way/1180267344","boat":"no","intermittent":"no","name":"Santa Cruz River","waterway":"river","wikipedia":"en:Santa Cruz River (Arizona)"},"id":"way/1180267344"},
{"type":"Feature","geometry":{"type":"LineString","coordinates":[[-108.9308123,33.4454682],[-108.9115262,33.3941293]]},"properties":{"@id":"way/1180535228","intermittent":"yes","name":"San Francisco River","waterway":"river"},"id":"way/1180535228"},
{"type":"Feature","geometry":{"type":"LineString","coordinates":[[-108.7926282,33.6368536],[-108.9078015,33.4563127]]},"properties":{"@id":"way/1180535375","intermittent":"yes","name":"San Francisco River","source":"maxar","waterway":"river"},"id":"way/1180535375"},
{"type":"Feature","geometry":{"type":"LineString","coordinates":[[-112.8592052,33.351829],[-112.8630973,33.3484367]]},"properties":{"@id":"way/1188773368","boat":"no","intermittent":"yes","oneway":"yes","surface":"dirt","waterway":"river"},"id":"way/1188773368"},
{"type":"Feature","geometry":{"type":"LineString","coordinates":[[-112.8589904,33.3519931],[-112.8592052,33.351829]]},"properties":{"@id":"way/1188773369","boat":"no","intermittent":"yes","layer":"-1","oneway":"yes","surface":"dirt","tunnel":"culvert","waterway":"river"},"id":"way/1188773369"},
{"type":"Feature","geometry":{"type":"LineString","coordinates":[[-110.640107,32.019472],[-110.6553188,32.0202139]]},"properties":{"@id":"way/1195443099","intermittent":"no","name":"Cienega Creek","seasonal":"no","waterway":"river"},"id":"way/1195443099"},
{"type":"Feature","geometry":{"type":"LineString","coordinates":[[-110.6553188,32.0202139],[-110.679357,32.035727]]},"properties":{"@id":"way/1195443100","intermittent":"yes","name":"Cienega Creek","seasonal":"no","waterway":"river"},"id":"way/1195443100"},
{"type":"Feature","geometry":{"type":"LineString","coordinates":[[-111.6156449,32.5978616],[-111.630067,32.5997225]]},"properties":{"@id":"way/1195443101","gnis:feature_id":"5367","name":"Greene Canal","note":"This canal was mistagged as the Santa Cruz River.","source":"National Hydrography Dataset","waterway":"river"},"id":"way/1195443101"},
{"type":"Feature","geometry":{"type":"LineString","coordinates":[[-110.9874242,32.101937],[-110.9884813,32.1028188]]},"properties":{"@id":"way/1197574669","boat":"no","intermittent":"yes","name":"Santa Cruz River","waterway":"river","wikipedia":"en:Santa Cruz River (Arizona)"},"id":"way/1197574669"},
{"type":"Feature","geometry":{"type":"LineString","coordinates":[[-111.3416351,33.2478051],[-111.4337582,33.1921585]]},"properties":{"@id":"way/1199334615","intermittent":"yes","waterway":"river"},"id":"way/1199334615"},
{"type":"Feature","geometry":{"type":"LineString","coordinates":[[-111.2674235,33.2789697],[-111.2875752,33.268998]]},"properties":{"@id":"way/1199334616","intermittent":"yes","waterway":"river"},"id":"way/1199334616"},
{"type":"Feature","geometry":{"type":"LineString","coordinates":[[-111.2875752,33.268998],[-111.2877146,33.2690389]]},"properties":{"@id":"way/1199334617","intermittent":"yes","layer":"-1","tunnel":"culvert","waterway":"river"},"id":"way/1199334617"},
{"type":"Feature","geometry":{"type":"LineString","coordinates":[[-111.2877146,33.2690389],[-111.3414443,33.2477922]]},"properties":{"@id":"way/1199334618","intermittent":"yes","waterway":"river"},"id":"way/1199334618"},
{"type":"Feature","geometry":{"type":"LineString","coordinates":[[-111.3414443,33.2477922],[-111.3416351,33.2478051]]},"properties":{"@id":"way/1199334619","intermittent":"yes","layer":"-1","tunnel":"culvert","waterway":"river"},"id":"way/1199334619"},
{"type":"Feature","geometry":{"type":"LineString","coordinates":[[-110.1952039,31.7386166],[-110.2052083,31.7731961]]},"properties":{"@id":"way/1202446288","intermittent":"yes","name":"San Pedro River","waterway":"river"},"id":"way/1202446288"},
{"type":"Feature","geometry":{"type":"LineString","coordinates":[[-110.1477991,31.3339444],[-110.1064339,31.3941391]]},"properties":{"@id":"way/1202446289","intermittent":"yes","name":"San Pedro River","waterway":"river"},"id":"way/1202446289"},
{"type":"Feature","geometry":{"type":"LineString","coordinates":[[-111.0007873,32.3809581],[-111.0006539,32.3806812]]},"properties":{"@id":"way/1204725102","boat":"no","intermittent":"yes","name":"Cañada del Oro","waterway":"river","wikidata":"Q5055567","wikipedia":"en:Cañada del Oro"},"id":"way/1204725102"},
{"type":"Feature","geometry":{"type":"LineString","coordinates":[[-111.0006021,32.3810814],[-111.0007873,32.3809581],[-111.0011289,32.3810154]]},"properties":{"@id":"way/1204725103","boat":"no","intermittent":"yes","name":"Cañada del Oro","waterway":"river","wikidata":"Q5055567","wikipedia":"en:Cañada del Oro"},"id":"way/1204725103"},
{"type":"Feature","geometry":{"type":"LineString","coordinates":[[-111.0006021,32.3810814],[-111.0011289,32.3810154],[-111.0071223,32.3779919]]},"properties":{"@id":"way/1204725105","boat":"no","intermittent":"yes","name":"Cañada del Oro","waterway":"river","wikidata":"Q5055567","wikipedia":"en:Cañada del Oro"},"id":"way/1204725105"},
{"type":"Feature","geometry":{"type":"LineString","coordinates":[[-110.9985966,32.3816356],[-111.0005065,32.3808048]]},"properties":{"@id":"way/1204725111","boat":"no","intermittent":"yes","name":"Cañada del Oro","waterway":"river","wikidata":"Q5055567","wikipedia":"en:Cañada del Oro"},"id":"way/1204725111"},
{"type":"Feature","geometry":{"type":"LineString","coordinates":[[-110.4317448,33.3868662],[-110.446136,33.3505562]]},"properties":{"@id":"way/1212426289","intermittent":"no","name":"San Carlos River","seasonal":"no","waterway":"river"},"id":"way/1212426289"},
{"type":"Feature","geometry":{"type":"LineString","coordinates":[[-110.4262813,33.3877694],[-110.4317448,33.3868662]]},"properties":{"@id":"way/1212426290","intermittent":"no","name":"San Carlos River","seasonal":"no","waterway":"river"},"id":"way/1212426290"},
{"type":"Feature","geometry":{"type":"LineString","coordinates":[[-110.4296231,33.3863697],[-110.4317448,33.3868662]]},"properties":{"@id":"way/1212426291","intermittent":"no","name":"San Carlos River","seasonal":"no","waterway":"river"},"id":"way/1212426291"},
{"type":"Feature","geometry":{"type":"LineString","coordinates":[[-110.4289373,33.386541],[-110.4296231,33.3863697]]},"properties":{"@id":"way/1212426292","intermittent":"no","layer":"-1","name":"San Carlos River","seasonal":"no","tunnel":"yes","waterway":"river"},"id":"way/1212426292"},
{"type":"Feature","geometry":{"type":"LineString","coordinates":[[-110.451892,33.2964625],[-110.444046,33.2576095],[-110.441947,33.2572991],[-110.4395565,33.2553251],[-110.4126298,33.2091955]]},"properties":{"@id":"way/1212426293","intermittent":"no","name":"San Carlos River","seasonal":"no","waterway":"river"},"id":"way/1212426293"},
{"type":"Feature","geometry":{"type":"LineString","coordinates":[[-110.169477,33.465712],[-110.1890677,33.4518534]]},"properties":{"@id":"way/1212426294","intermittent":"yes","name":"San Carlos River","seasonal":"no","waterway":"river"},"id":"way/1212426294"},
{"type":"Feature","geometry":{"type":"LineString","coordinates":[[-112.7693662,33.2854922],[-112.7707663,33.2847321]]},"properties":{"@id":"way/1232047550","intermittent":"yes","name":"Gila River","surface":"dirt","waterway":"river"},"id":"way/1232047550"},
{"type":"Feature","geometry":{"type":"LineString","coordinates":[[-112.768527,33.2878084],[-112.7707663,33.2847321],[-112.7728397,33.2801444]]},"properties":{"@id":"way/1232047551","intermittent":"yes","name":"Gila River","surface":"dirt","waterway":"river"},"id":"way/1232047551"},
{"type":"Feature","geometry":{"type":"LineString","coordinates":[[-112.7459369,33.3082718],[-112.7470073,33.3082272]]},"properties":{"@id":"way/1232047552","intermittent":"yes","name":"Gila River","surface":"dirt","waterway":"river"},"id":"way/1232047552"},
{"type":"Feature","geometry":{"type":"LineString","coordinates":[[-112.73137,33.3089961],[-112.7330008,33.3091037]]},"properties":{"@id":"way/1232047553","intermittent":"yes","name":"Gila River","surface":"dirt","waterway":"river"},"id":"way/1232047553"},
{"type":"Feature","geometry":{"type":"LineString","coordinates":[[-112.6760707,33.321569],[-112.6815668,33.3215883]]},"properties":{"@id":"way/1232047554","intermittent":"yes","name":"Gila River","surface":"dirt","waterway":"river"},"id":"way/1232047554"},
{"type":"Feature","geometry":{"type":"LineString","coordinates":[[-112.640074,33.3331627],[-112.6451264,33.3295004]]},"properties":{"@id":"way/1232047555","intermittent":"yes","name":"Gila River","surface":"dirt","waterway":"river"},"id":"way/1232047555"},
{"type":"Feature","geometry":{"type":"LineString","coordinates":[[-113.0530769,33.0817895],[-113.053215,33.0816715]]},"properties":{"@id":"way/1232306854","intermittent":"yes","layer":"-1","name":"Gila River","source":"Yahoo","surface":"dirt","tunnel":"culvert","waterway":"river"},"id":"way/1232306854"},
{"type":"Feature","geometry":{"type":"LineString","coordinates":[[-113.0129937,33.0768519],[-113.0286898,33.0881484],[-113.0504108,33.0849392],[-113.0530769,33.0817895]]},"properties":{"@id":"way/1232306855","intermittent":"yes","name":"Gila River","source":"Yahoo","surface":"dirt","waterway":"river"},"id":"way/1232306855"},
{"type":"Feature","geometry":{"type":"LineString","coordinates":[[-108.9053249,33.3347838],[-108.8895423,33.3137693]]},"properties":{"@id":"way/1235756640","intermittent":"no","name":"San Francisco River","waterway":"river"},"id":"way/1235756640"},
{"type":"Feature","geometry":{"type":"LineString","coordinates":[[-108.9305876,33.4497274],[-108.9300141,33.4485578],[-108.9308123,33.4454682]]},"properties":{"@id":"way/1235772848","intermittent":"yes","name":"San Francisco River","waterway":"river"},"id":"way/1235772848"},
{"type":"Feature","geometry":{"type":"LineString","coordinates":[[-108.3563735,32.5553914],[-108.2141556,32.4177671]]},"properties":{"@id":"way/1236765290","intermittent":"yes","name":"Walnut Creek","waterway":"river"},"id":"way/1236765290"},
{"type":"Feature","geometry":{"type":"LineString","coordinates":[[-108.2104131,32.4135673],[-108.2103696,32.4134784]]},"properties":{"@id":"way/1236765291","intermittent":"yes","layer":"-1","name":"Walnut Creek","tunnel":"culvert","waterway":"river"},"id":"way/1236765291"},
{"type":"Feature","geometry":{"type":"LineString","coordinates":[[-108.211644,32.4149058],[-108.2104131,32.4135673]]},"properties":{"@id":"way/1236765292","intermittent":"yes","name":"Walnut Creek","waterway":"river"},"id":"way/1236765292"},
{"type":"Feature","geometry":{"type":"LineString","coordinates":[[-108.2117857,32.4150659],[-108.211644,32.4149058]]},"properties":{"@id":"way/1236765293","intermittent":"yes","layer":"-1","name":"Walnut Creek","tunnel":"culvert","waterway":"river"},"id":"way/1236765293"},
{"type":"Feature","geometry":{"type":"LineString","coordinates":[[-108.2140801,32.4176949],[-108.2117857,32.4150659]]},"properties":{"@id":"way/1236765294","intermittent":"yes","name":"Walnut Creek","waterway":"river"},"id":"way/1236765294"},
{"type":"Feature","geometry":{"type":"LineString","coordinates":[[-108.2141556,32.4177671],[-108.2140801,32.4176949]]},"properties":{"@id":"way/1236765295","intermittent":"yes","layer":"-1","name":"Walnut Creek","tunnel":"culvert","waterway":"river"},"id":"way/1236765295"},
{"type":"Feature","geometry":{"type":"LineString","coordinates":[[-110.4500629,33.3007242],[-110.451892,33.2964625]]},"properties":{"@id":"way/1287795025","intermittent":"yes","name":"San Carlos River","seasonal":"no","waterway":"river"},"id":"way/1287795025"},
{"type":"Feature","geometry":{"type":"LineString","coordinates":[[-110.4484078,33.3082877],[-110.4500629,33.3007242]]},"properties":{"@id":"way/1287795026","intermittent":"no","name":"San Carlos River","seasonal":"no","waterway":"river"},"id":"way/1287795026"},
{"type":"Feature","geometry":{"type":"LineString","coordinates":[[-110.446136,33.3505562],[-110.4484078,33.3082877]]},"properties":{"@id":"way/1287795027","intermittent":"yes","name":"San Carlos River","seasonal":"no","waterway":"river"},"id":"way/1287795027"},
{"type":"Feature","geometry":{"type":"LineString","coordinates":[[-110.4476166,33.3093614],[-110.4484078,33.3082877]]},"properties":{"@id":"way/1287795028","intermittent":"no","name":"San Carlos River","seasonal":"no","waterway":"river"},"id":"way/1287795028"},
{"type":"Feature","geometry":{"type":"LineString","coordinates":[[-110.444046,33.2576095],[-110.4395565,33.2553251]]},"properties":{"@id":"way/1287795110","intermittent":"yes","name":"San Carlos River","seasonal":"no","waterway":"river"},"id":"way/1287795110"},
{"type":"Feature","geometry":{"type":"LineString","coordinates":[[-110.4438964,33.2645051],[-110.441947,33.2572991]]},"properties":{"@id":"way/1287795111","intermittent":"yes","name":"San Carlos River","seasonal":"no","waterway":"river"},"id":"way/1287795111"},
{"type":"Feature","geometry":{"type":"LineString","coordinates":[[-110.4500629,33.3007242],[-110.451892,33.2964625]]},"properties":{"@id":"way/1287795112","intermittent":"no","name":"San Carlos River","seasonal":"no","waterway":"river"},"id":"way/1287795112"},
{"type":"Feature","geometry":{"type":"LineString","coordinates":[[-111.3746269,32.5303676],[-111.4029935,32.5426284]]},"properties":{"@id":"way/1292240182","intermittent":"no","not:name":"Santa Cruz River","waterway":"river"},"id":"way/1292240182"},
{"type":"Feature","geometry":{"type":"LineString","coordinates":[[-111.4029935,32.5426284],[-111.4835122,32.5815291]]},"properties":{"@id":"way/1292240183","intermittent":"yes","not:name":"Santa Cruz River","waterway":"river"},"id":"way/1292240183"},
{"type":"Feature","geometry":{"type":"LineString","coordinates":[[-110.8199444,32.2562483],[-110.8244187,32.2603519],[-110.8759715,32.2696458]]},"properties":{"@id":"way/1310905006","intermittent":"yes","name":"Tanque Verde Wash","waterway":"river"},"id":"way/1310905006"},
{"type":"Feature","geometry":{"type":"LineString","coordinates":[[-110.7378942,32.2419772],[-110.7868517,32.2433039],[-110.8199444,32.2562483]]},"properties":{"@id":"way/1310905008","highway":"path","intermittent":"yes","name":"Tanque Verde Wash","waterway":"river"},"id":"way/1310905008"},
{"type":"Feature","geometry":{"type":"LineString","coordinates":[[-110.7777021,32.2440385],[-110.7868517,32.2433039]]},"properties":{"@id":"way/1310905009","highway":"path","intermittent":"yes","name":"Agua Caliente Wash","waterway":"river"},"id":"way/1310905009"},
{"type":"Feature","geometry":{"type":"LineString","coordinates":[[-110.7166803,32.2969517],[-110.734502,32.2863356]]},"properties":{"@id":"way/1310905014","intermittent":"yes","name":"Agua Caliente Wash","waterway":"river"},"id":"way/1310905014"},
{"type":"Feature","geometry":{"type":"LineString","coordinates":[[-111.6974231,31.0403389],[-111.7165141,31.0237238]]},"properties":{"@id":"way/1312332677","waterway":"river"},"id":"way/1312332677"},
{"type":"Feature","geometry":{"type":"LineString","coordinates":[[-110.4763887,32.3145127],[-110.4607587,32.3316245],[-110.435528,32.3598626]]},"properties":{"@id":"way/1312752000","intermittent":"yes","name":"Soza Canyon","waterway":"river"},"id":"way/1312752000"},
{"type":"Feature","geometry":{"type":"LineString","coordinates":[[-110.4985662,32.3399102],[-110.4607587,32.3316245]]},"properties":{"@id":"way/1312752001","intermittent":"yes","name":"Youtcy Canyon","waterway":"river"},"id":"way/1312752001"},
{"type":"Feature","geometry":{"type":"LineString","coordinates":[[-110.5691464,32.5052701],[-110.5009303,32.5473272]]},"properties":{"@id":"way/1312900582","intermittent":"yes","name":"Alder Wash","waterway":"river"},"id":"way/1312900582"},
{"type":"Feature","geometry":{"type":"LineString","coordinates":[[-109.8206368,32.8907986],[-109.8206377,32.8909196]]},"properties":{"@id":"way/1365353011","boat":"no","layer":"-1","oneway":"yes","surface":"dirt","waterway":"river"},"id":"way/1365353011"},
{"type":"Feature","geometry":{"type":"LineString","coordinates":[[-109.8206355,32.8907862],[-109.8206368,32.8907986]]},"properties":{"@id":"way/1365353012","boat":"no","oneway":"yes","surface":"dirt","waterway":"river"},"id":"way/1365353012"},
{"type":"Feature","geometry":{"type":"LineString","coordinates":[[-109.8206356,32.8907635],[-109.8206355,32.8907862]]},"properties":{"@id":"way/1365353013","boat":"no","layer":"-1","oneway":"yes","surface":"dirt","waterway":"river"},"id":"way/1365353013"},
{"type":"Feature","geometry":{"type":"LineString","coordinates":[[-109.8209064,32.8890573],[-109.8206356,32.8907635]]},"properties":{"@id":"way/1365353014","boat":"no","oneway":"yes","surface":"dirt","waterway":"river"},"id":"way/1365353014"},
{"type":"Feature","geometry":{"type":"LineString","coordinates":[[-109.8207851,32.8925888],[-109.820825,32.893748]]},"properties":{"@id":"way/1365353026","boat":"no","oneway":"yes","surface":"dirt","waterway":"river"},"id":"way/1365353026"},
{"type":"Feature","geometry":{"type":"LineString","coordinates":[[-109.8207888,32.892441],[-109.8207851,32.8925888]]},"properties":{"@id":"way/1365353027","boat":"no","layer":"-1","oneway":"yes","surface":"dirt","tunnel":"culvert","waterway":"river"},"id":"way/1365353027"},
{"type":"Feature","geometry":{"type":"LineString","coordinates":[[-109.5367155,32.8604576],[-109.5400459,32.8608607]]},"properties":{"@id":"way/1388969320","name":"Gila River","waterway":"river"},"id":"way/1388969320"},
{"type":"Feature","geometry":{"type":"LineString","coordinates":[[-109.554959,32.8597473],[-109.5720342,32.8515984]]},"properties":{"@id":"way/1388969325","name":"Gila River","waterway":"river"},"id":"way/1388969325"},
{"type":"Feature","geometry":{"type":"LineString","coordinates":[[-109.7398775,32.8586032],[-109.7473124,32.866249]]},"properties":{"@id":"way/1388969326","name":"Gila River","waterway":"river"},"id":"way/1388969326"},
{"type":"Feature","geometry":{"type":"LineString","coordinates":[[-112.1302054,31.6542232],[-112.1398844,31.6930123]]},"properties":{"@id":"way/1392353123","intermittent":"yes","waterway":"river"},"id":"way/1392353123"},
{"type":"Feature","geometry":{"type":"LineString","coordinates":[[-112.1345699,31.6796792],[-112.1383809,31.6883987]]},"properties":{"@id":"way/1392353124","intermittent":"yes","waterway":"river"},"id":"way/1392353124"},
{"type":"Feature","geometry":{"type":"LineString","coordinates":[[-112.134917,31.6309152],[-112.1073229,31.6607843]]},"properties":{"@id":"way/1392359676","intermittent":"yes","waterway":"river"},"id":"way/1392359676"},
{"type":"Feature","geometry":{"type":"LineString","coordinates":[[-112.1073956,31.6609103],[-112.1156978,31.6827054]]},"properties":{"@id":"way/1392359677","intermittent":"yes","waterway":"river"},"id":"way/1392359677"},
{"type":"Feature","geometry":{"type":"LineString","coordinates":[[-112.1073229,31.6607843],[-112.1073956,31.6609103]]},"properties":{"@id":"way/1392359678","intermittent":"yes","layer":"-1","tunnel":"culvert","waterway":"river"},"id":"way/1392359678"},
{"type":"Feature","geometry":{"type":"LineString","coordinates":[[-112.1073984,31.6180175],[-112.1097574,31.6788907],[-112.1156978,31.6827054],[-112.1803057,31.7899269]]},"properties":{"@id":"way/1392359684","intermittent":"yes","waterway":"river"},"id":"way/1392359684"},
{"type":"Feature","geometry":{"type":"LineString","coordinates":[[-112.1250354,31.77831],[-112.1803057,31.7899269],[-112.1913643,31.7915019],[-112.2019297,31.7904921]]},"properties":{"@id":"way/1392359685","intermittent":"yes","waterway":"river"},"id":"way/1392359685"},
{"type":"Feature","geometry":{"type":"LineString","coordinates":[[-112.1913643,31.7915019],[-112.2019297,31.7904921],[-112.2480267,31.808925]]},"properties":{"@id":"way/1392359686","intermittent":"yes","waterway":"river"},"id":"way/1392359686"},
{"type":"Feature","geometry":{"type":"LineString","coordinates":[[-112.0649365,31.5702278],[-112.0717772,31.6433121]]},"properties":{"@id":"way/1392365944","intermittent":"yes","waterway":"river"},"id":"way/1392365944"},
{"type":"Feature","geometry":{"type":"LineString","coordinates":[[-112.066121,31.614306],[-112.0717772,31.6433121],[-112.1097574,31.6788907]]},"properties":{"@id":"way/1392365945","intermittent":"yes","waterway":"river"},"id":"way/1392365945"}
]}